geometry,LIC_NAME,BLK_HOUSE,STR_NAME,UNIT_NO,POSTCODE,LIC_NO,INC_CRC,address,NTUC,chain,PLN_AREA_N,SUBZONE_N,LON,LAT
POINT Z (103.901262393433 1.40230300615945 0),LI LI CHENG SUPERMARKET (PUNGGOL) PTE. LTD.,273C,PUNGGOL PLACE,884,823273,NE12I65N000,3DE8AF6E76F9D3D4,273C PUNGGOL PLACE,False,False,PUNGGOL,MATILDA,103.901262393433,1.40230300615945
POINT Z (103.870914035563 1.31423937057047 0),SHENG SIONG SUPERMARKET PTE LTD,11,UPPER BOON KENG ROAD,901,380011,E73010V000,F361759A8261CD6E,11 UPPER BOON KENG ROAD,False,True,KALLANG,BOON KENG,103.870914035563,1.31423937057047
POINT Z (103.886365538231 1.3733212172841 0),COLD STORAGE SINGAPORE (1983) PTE LTD,683,HOUGANG AVENUE 8,903,530683,NE11909C000,1DC69902E02077CE,683 HOUGANG AVENUE 8,False,True,HOUGANG,HOUGANG WEST,103.886365538231,1.3733212172841
POINT Z (103.914941831132 1.33295872723089 0),COLD STORAGE SINGAPORE (1983) PTE LTD,631,BEDOK RESERVOIR ROAD,954,470631,S02210X000,4E2560154B58BA38,631 BEDOK RESERVOIR ROAD,False,True,BEDOK,KAKI BUKIT,103.914941831132,1.33295872723089
POINT Z (103.953009921086 1.35345315592225 0),YES SUPERMARKET PTE LTD,201B,TAMPINES STREET 21,1091,522201,S02037J000,559A9A00D9FF8A55,201B TAMPINES STREET 21,False,False,TAMPINES,TAMPINES EAST,103.953009921086,1.35345315592225
POINT Z (103.95358649775 1.35226231253931 0),SUZYAMEER FROZEN PTE. LTD.,201D,TAMPINES STREET 21,1161,524201,NE08357A000,1D32060098628881,201D TAMPINES STREET 21,False,False,TAMPINES,TAMPINES EAST,103.95358649775,1.35226231253931
POINT Z (103.852966963093 1.36538421638439 0),G8 MART PTE. LTD.,421,ANG MO KIO AVENUE 10,1161,560421,CE13401C000,E83AE5A9842F67BC,421 ANG MO KIO AVENUE 10,False,False,ANG MO KIO,CHONG BOON,103.852966963093,1.36538421638439
POINT Z (103.83674063794 1.36754924783084 0),SHENG SIONG SUPERMARKET PTE LTD,233,ANG MO KIO AVENUE 3,1168,560233,CE04334P000,08D1E417EB224327,233 ANG MO KIO AVENUE 3,False,True,ANG MO KIO,SHANGRI-LA,103.83674063794,1.36754924783084
POINT Z (103.890680794853 1.35370296933733 0),PRIME SUPERMARKET (1996) PTE LTD,106,HOUGANG AVENUE 1,1213,530106,S02059X000,3DA5C840D472C779,106 HOUGANG AVENUE 1,False,True,HOUGANG,LORONG AH SOO,103.890680794853,1.35370296933733
POINT Z (103.842396448241 1.43007109706807 0),TAN KWEE ENG,327,YISHUN RING ROAD,1320,760327,B02041C000,FBB8A845FD8ADDC4,327 YISHUN RING ROAD,False,False,YISHUN,YISHUN EAST,103.842396448241,1.43007109706807
POINT Z (103.843413241014 1.3701886043625 0),SHENG SIONG SUPERMARKET PTE LTD,122,ANG MO KIO AVENUE 3,1753,560122,B02015J000,DEC1603A9CDAA8B2,122 ANG MO KIO AVENUE 3,False,True,ANG MO KIO,KEBUN BAHRU,103.843413241014,1.3701886043625
POINT Z (103.832882666076 1.42213865028433 0),KAI SOON SUPERMARKET PTE. LTD.,780,YISHUN RING ROAD,3546,760780,W03223N000,97BC62A54004ABA9,780 YISHUN RING ROAD,False,False,YISHUN,KHATIB,103.832882666076,1.42213865028433
POINT Z (103.767260053848 1.32325040085144 0),COLD STORAGE SINGAPORE (1983) PTE LTD,41,SUNSET WAY,01A,597071,NW08141P000,5B36941E8637D978,41 SUNSET WAY,False,True,CLEMENTI,SUNSET WAY,103.767260053848,1.32325040085144
POINT Z (103.814245545298 1.32257317593847 0),THE FISHWIVES PTE. LTD.,501,BUKIT TIMAH ROAD,05B,259760,W02430L000,D1ABF0A07806E6A5,501 BUKIT TIMAH ROAD,False,False,TANGLIN,TYERSALL,103.814245545298,1.32257317593847
POINT Z (103.87874621482 1.33429241375195 0),PRIME SUPERMARKET LIMITED,1,UPPER ALJUNIED LANE,1,360001,SE04040C000,348D2160A5640B99,1 UPPER ALJUNIED LANE,False,True,TOA PAYOH,JOO SENG,103.87874621482,1.33429241375195
POINT Z (103.886699759329 1.31420654866153 0),ABEDIN TRADING PTE. LTD.,599,GEYLANG ROAD,1,389538,SE15464L000,527AE12639704BB5,599 GEYLANG ROAD,False,False,GEYLANG,ALJUNIED,103.886699759329,1.31420654866153
POINT Z (103.876152670397 1.30222178109552 0),COLD STORAGE SINGAPORE (1983) PTE LTD,5,STADIUM WALK,1,397693,SE07216L000,B63A248EF9D05582,5 STADIUM WALK,False,True,KALLANG,TANJONG RHU,103.876152670397,1.30222178109552
POINT Z (103.843656771807 1.32021101601675 0),COLD STORAGE SINGAPORE (1983) PTE LTD,238,THOMSON ROAD,28/29,307683,W02074L000,2CB5FB935C95714E,238 THOMSON ROAD,False,True,NOVENA,MOULMEIN,103.843656771807,1.32021101601675
POINT Z (103.762741183479 1.37834971351323 0),SONG FISH DEALER PTE LTD,17,PETIR ROAD,3,678278,NW17069X000,0F6D28052F81A605,17 PETIR ROAD,False,False,BUKIT PANJANG,JELEBU,103.762741183479,1.37834971351323
POINT Z (103.800701205041 1.43991607901426 0),THE SEAFOOD MARKET PLACE (BY SONG FISH) PTE. LTD.,676,WOODLANDS DRIVE 71,4,730676,NW18310J000,80FFC5863445363D,676 WOODLANDS DRIVE 71,False,False,WOODLANDS,WOODLANDS EAST,103.800701205041,1.43991607901426
POINT Z (103.857010987509 1.30778510070706 0),SHENG SIONG SUPERMARKET PTE LTD,1,JALAN BERSEH,3/22,209037,CE12096L000,0345D5333A79129B,1 JALAN BERSEH,False,True,ROCHOR,SUNGEI ROAD,103.857010987509,1.30778510070706
POINT Z (103.823852799187 1.30484344487426 0),COLD STORAGE SINGAPORE (1983) PTE LTD,163,TANGLIN ROAD,2/3,247933,W02073N000,0F0E200CDB5F3678,163 TANGLIN ROAD,False,True,ORCHARD,TANGLIN,103.823852799187,1.30484344487426
POINT Z (103.80938167216 1.30344597442988 0),BLUEWATER SEAFOOD PTE. LTD.,8D,DEMPSEY ROAD,1,249672,CE18D64L000,0A84C7734855DF0F,8D DEMPSEY ROAD,False,False,TANGLIN,RIDOUT,103.80938167216,1.30344597442988
POINT Z (103.824463823195 1.30570970646179 0),WONS BUTCHERY PTE. LTD.,1,ST. MARTIN'S DRIVE,1,257988,CE18G34E000,2A8AD7C49BB35393,1 ST. MARTIN'S DRIVE,False,False,TANGLIN,NASSIM,103.824463823195,1.30570970646179
POINT Z (103.795246166645 1.31064350283582 0),LITTLE FARMS PTE. LTD.,3,LORONG LIPUT,4,277725,CE18I13C000,A887A4094F9E78C9,3 LORONG LIPUT,False,False,BUKIT TIMAH,LEEDON PARK,103.795246166645,1.31064350283582
POINT Z (103.87962231543 1.31245104539871 0),B & S MINI MART PTE. LTD.,310,GEYLANG ROAD,,389349,CE14Q85A000,4DFE6BEAE93CDC87,310 GEYLANG ROAD,False,False,GEYLANG,ALJUNIED,103.87962231543,1.31245104539871
POINT Z (103.896498243508 1.30373373435466 0),"CHEE MIN KUAN, SIMON",342,TANJONG KATONG ROAD,,437112,SE14965K000,7827732A1824519B,342 TANJONG KATONG ROAD,False,False,MARINE PARADE,MOUNTBATTEN,103.896498243508,1.30373373435466
POINT Z (103.985869406123 1.31845201086353 0),JSJ CORPORATION PTE. LTD.,31A,TANAH MERAH COAST ROAD,1,498720,SE17345J000,FDD2F7C14A0999CC,31A TANAH MERAH COAST ROAD,False,False,CHANGI,CHANGI AIRPORT,103.985869406123,1.31845201086353
POINT Z (103.941978177656 1.37860238037503 0),U STARS PTE. LTD.,625,ELIAS ROAD,302,510625,NE04092A000,5FF712EFFA4F8498,625 ELIAS ROAD,False,False,PASIR RIS,PASIR RIS WEST,103.941978177656,1.37860238037503
POINT Z (103.774213263461 1.34082661486743 0),LOTTE MART PTE. LTD.,17,LORONG KILAT,2,598139,SW06806E000,84C132EF00F2782B,17 LORONG KILAT,False,False,BUKIT TIMAH,ANAK BUKIT,103.774213263461,1.34082661486743
POINT Z (103.727480745718 1.32210836314021 0),AJMAL TRADING GROUP PTE. LTD.,5,JALAN PAPAN,32,619396,SW16B52K000,93A2A674B553E67B,5 JALAN PAPAN,False,False,JURONG EAST,JURONG RIVER,103.727480745718,1.32210836314021
POINT Z (103.705099705855 1.32491980413317 0),MURUGAN TRADERS PTE LTD,9,TRACTOR ROAD,,627970,SW18B79P000,F1EBC8EAFDAA9EF8,9 TRACTOR ROAD,False,False,BOON LAY,TUKANG,103.705099705855,1.32491980413317
POINT Z (103.739303106346 1.35572307607651 0),SHENG SIONG SUPERMARKET PTE LTD,440,BUKIT BATOK WEST AVENUE 8,10,650440,SW18A30L000,26B1BFE8EC40794E,440 BUKIT BATOK WEST AVENUE 8,False,True,BUKIT BATOK,BRICKWORKS,103.739303106346,1.35572307607651
POINT Z (103.80548757912 1.44680413155135 0),SHENG SIONG SUPERMARKET PTE LTD,785E,WOODLANDS RISE,1,735785,NW18649C000,3C5B5E0FADC770CB,785E WOODLANDS RISE,False,True,WOODLANDS,WOODLANDS EAST,103.80548757912,1.44680413155135
POINT Z (103.809438952915 1.46152554782754 0),AJMAL TRADING GROUP PTE. LTD.,2,WOODLANDS SECTOR 2,5,737723,NW15489B000,50016EF55AB80A12,2 WOODLANDS SECTOR 2,False,False,SEMBAWANG,SENOKO SOUTH,103.809438952915,1.46152554782754
POINT Z (103.843558892177 1.42015550315781 0),SHENG SIONG SUPERMARKET PTE LTD,675,YISHUN AVENUE 4,10,760675,NW18478E000,30AE6E739E4C2175,675 YISHUN AVENUE 4,False,True,YISHUN,YISHUN SOUTH,103.843558892177,1.42015550315781
POINT Z (103.839030200378 1.4443412952404 0),PHAN NEE TRADING LLP,2B,YISHUN AVENUE 7,1,768929,NW08337X000,8B068D0211232A26,2B YISHUN AVENUE 7,False,False,SIMPANG,SIMPANG NORTH,103.839030200378,1.4443412952404
POINT Z (103.919352755684 1.39990420413757 0),HAO MART PTE. LTD.,658,PUNGGOL EAST,1,820658,NE18667L000,EE65F5A79DDD5BAE,658 PUNGGOL EAST,False,True,PUNGGOL,WATERWAY EAST,103.919352755684,1.39990420413757
POINT Z (103.913195747038 1.40287845138627 0),THE SEAFOOD MARKET PLACE (BY SONG FISH) PTE. LTD.,681,PUNGGOL DRIVE,9,820681,NE18529J000,CFB223AB2921E70E,681 PUNGGOL DRIVE,False,False,PUNGGOL,WATERWAY EAST,103.913195747038,1.40287845138627
POINT Z (103.853890711284 1.37264569542777 0),COLD STORAGE SINGAPORE (1983) PTE LTD,525,ANG MO KIO AVENUE 10,2401,560525,S02169J000,8C89C07BAD44F7D8,525 ANG MO KIO AVENUE 10,False,True,ANG MO KIO,CHENG SAN,103.853890711284,1.37264569542777
POINT Z (103.843470740865 1.27458822422728 0),PAN PACIFIC INTERNATIONAL HOLDINGS PTE. LTD.,100,TRAS STREET,1/5,79027,CE18A78X000,A560CDE4DE209D00,100 TRAS STREET,False,False,DOWNTOWN CORE,ANSON,103.843470740865,1.27458822422728
POINT Z (103.902232496984 1.30982227398559 0),COLD STORAGE SINGAPORE (1983) PTE LTD,291,JOO CHIAT ROAD,1,427543,SE11505P000,2340EFD9FB6110BC,291 JOO CHIAT ROAD,False,True,MARINE PARADE,KATONG,103.902232496984,1.30982227398559
POINT Z (103.916519601442 1.40262196510476 0),SHENG SIONG SUPERMARKET PTE LTD,660A,EDGEDALE PLAINS,1,821660,NE17700J000,1AB52643F941FA3A,660A EDGEDALE PLAINS,False,True,PUNGGOL,WATERWAY EAST,103.916519601442,1.40262196510476
POINT Z (103.903735085122 1.33733862368542 0),VIVA CORP SERVICES PTE. LTD.,23,KAKI BUKIT ROAD 3,2,415812,NE14190K000,F9CBEC22DB1FB858,23 KAKI BUKIT ROAD 3,False,False,BEDOK,KAKI BUKIT,103.903735085122,1.33733862368542
POINT Z (103.806586886276 1.33176109907579 0),SWISS BUTCHERY (2013) PRIVATE LIMITED,30,GREENWOOD AVENUE,,289230,CE07705A000,C869661C01CC7122,30 GREENWOOD AVENUE,False,False,BUKIT TIMAH,HILLCREST,103.806586886276,1.33176109907579
POINT Z (103.806492419384 1.33183240808538 0),ROSWELL ENTERPRISE PTE LTD,34,GREENWOOD AVENUE,,289236,B03078N000,1AC0DC1360B91602,34 GREENWOOD AVENUE,False,False,BUKIT TIMAH,HILLCREST,103.806492419384,1.33183240808538
POINT Z (103.75434143082 1.33683097371867 0),T S J INDUSTRIAL (S) PTE. LTD.,48,TOH GUAN ROAD EAST,130,608586,SW14484J000,3A9EFB753F3C9DE9,48 TOH GUAN ROAD EAST,False,False,CLEMENTI,TOH TUCK,103.75434143082,1.33683097371867
POINT Z (103.905113590458 1.30119131472187 0),COLD STORAGE SINGAPORE (1983) PTE LTD,80,MARINE PARADE ROAD,27/62,449269,E02196C000,8F1010F83432B78B,80 MARINE PARADE ROAD,False,True,MARINE PARADE,MARINE PARADE,103.905113590458,1.30119131472187
POINT Z (103.864101650514 1.30974242012866 0),COLD STORAGE SINGAPORE (1983) PTE LTD,12,KALLANG AVENUE,47,339511,CE14G73B000,D7FC2498E326BABA,12 KALLANG AVENUE,False,True,KALLANG,KALLANG BAHRU,103.864101650514,1.30974242012866
POINT Z (103.894480527876 1.31469214115978 0),COLD STORAGE SINGAPORE (1983) PTE LTD,11,TANJONG KATONG ROAD,36,437157,SE14875L000,5373FE2CE9E8656B,11 TANJONG KATONG ROAD,False,True,GEYLANG,GEYLANG EAST,103.894480527876,1.31469214115978
POINT Z (103.76528451751 1.30358269052594 0),COLD STORAGE SINGAPORE (1983) PTE LTD,154,WEST COAST ROAD,,127371,SW08807K000,50EDCA33BB1577BC,154 WEST COAST ROAD,False,True,CLEMENTI,CLEMENTI WOODS,103.76528451751,1.30358269052594
POINT Z (103.788214538525 1.30684882667818 0),COLD STORAGE SINGAPORE (1983) PTE LTD,1,VISTA EXCHANGE GREEN,,138617,SW12J97L000,A0FE827922FA7CEA,1 VISTA EXCHANGE GREEN,False,True,QUEENSTOWN,ONE NORTH,103.788214538525,1.30684882667818
POINT Z (103.835371310094 1.28345077313013 0),FOODIE MARKET PLACE PTE. LTD.,225,OUTRAM ROAD,,169038,CE10I13B000,F07E9FCD9F10FF17,225 OUTRAM ROAD,False,False,BUKIT MERAH,TIONG BAHRU,103.835371310094,1.28345077313013
POINT Z (103.855701594507 1.30975274714546 0),MUSTAFA HOLDINGS PTE LTD,147,SYED ALWI ROAD,,207706,W03142N000,774A8FF4716A0468,147 SYED ALWI ROAD,False,False,KALLANG,LAVENDER,103.855701594507,1.30975274714546
POINT Z (103.828509016301 1.30619579913532 0),SUPERNATURE PTE LTD,583,ORCHARD ROAD,,238884,CE13539N000,1CBCEAA88F882DA8,583 ORCHARD ROAD,False,False,ORCHARD,BOULEVARD,103.828509016301,1.30619579913532
POINT Z (103.810185824202 1.30679240718754 0),HUBER'S PTE. LTD.,22,DEMPSEY ROAD,,249679,CE15F60K000,806CEE3EA9FC3627,22 DEMPSEY ROAD,False,False,TANGLIN,RIDOUT,103.810185824202,1.30679240718754
POINT Z (103.809357938829 1.32437350966463 0),MEAT THE BUTCHER PTE. LTD.,615,BUKIT TIMAH ROAD,,269716,C00033N000,ED02CBDEA21A897A,615 BUKIT TIMAH ROAD,False,False,BUKIT TIMAH,CORONATION ROAD,103.809357938829,1.32437350966463
POINT Z (103.778947263616 1.31661898336453 0),YEO KENG GUAN,5,RIDGEWOOD CLOSE,,276696,C02052N000,12BAB587D1D0035D,5 RIDGEWOOD CLOSE,False,False,BUKIT TIMAH,ULU PANDAN,103.778947263616,1.31661898336453
POINT Z (103.785840623813 1.31756196835644 0),COLD STORAGE SINGAPORE (1983) PTE LTD,293,HOLLAND ROAD,,278628,C02025V000,E3AE1F03B1EBFB54,293 HOLLAND ROAD,False,True,BUKIT TIMAH,ULU PANDAN,103.785840623813,1.31756196835644
POINT Z (103.806809259373 1.33149147155619 0),COLD STORAGE SINGAPORE (1983) PTE LTD,20,GREENWOOD AVENUE,,289215,CE09685B000,E1A69FE0E5A1E4B6,20 GREENWOOD AVENUE,False,True,BUKIT TIMAH,HILLCREST,103.806809259373,1.33149147155619
POINT Z (103.836723882475 1.43576080071655 0),COLD STORAGE SINGAPORE (1983) PTE LTD,291,YISHUN STREET 22,389/3,760291,NW04015N000,8914CCFB5EC74BBA,291 YISHUN STREET 22,False,True,YISHUN,NORTHLAND,103.836723882475,1.43576080071655
POINT Z (103.699070270739 1.33212290136628 0),CHD @ SOON LEE PTE. LTD.,51,SOON LEE ROAD,51A,628088,SW08A55C000,BE1B6F516F25A541,51 SOON LEE ROAD,False,False,JURONG WEST,KIAN TECK,103.699070270739,1.33212290136628
POINT Z (103.725221546037 1.32546808409855 0),SHENG SIONG SUPERMARKET PTE LTD,3,YUAN CHING ROAD,,618642,C02050X000,E6AE4186735FA316,3 YUAN CHING ROAD,False,True,JURONG WEST,TAMAN JURONG,103.725221546037,1.32546808409855
POINT Z (103.626729263079 1.29501368647394 0),MD SYDUR RAHMAN,13,TUAS SOUTH STREET 5,1,637555,SW08047V000,B4422DB91B36391B,13 TUAS SOUTH STREET 5,False,False,TUAS,TUAS VIEW,103.626729263079,1.29501368647394
POINT Z (103.786436916899 1.45605972594988 0),7SEVEN PTE. LTD.,51,NORTH COAST AVENUE,3,756992,NW14561E000,12414EE8F62DE271,51 NORTH COAST AVENUE,False,False,WOODLANDS,NORTH COAST,103.786436916899,1.45605972594988
POINT Z (103.787404060028 1.29929406658312 0),COLD STORAGE SINGAPORE (1983) PTE LTD,1,FUSIONOPOLIS WAY,3,138632,SW17E56V000,9E0F71EB5EF428DE,1 FUSIONOPOLIS WAY,False,True,QUEENSTOWN,ONE NORTH,103.787404060028,1.29929406658312
POINT Z (103.832392856092 1.44886402051704 0),SHENG SIONG SUPERMARKET PTE LTD,105,CANBERRA STREET,5,750105,NW18021V000,3F32EA93C85A7792,105 CANBERRA STREET,False,True,SEMBAWANG,SEMBAWANG EAST,103.832392856092,1.44886402051704
POINT Z (103.806198058319 1.44062992233001 0),U STARS PTE. LTD.,691,WOODLANDS DRIVE 73,6,730691,NW17990N000,556F179A4065EAA6,691 WOODLANDS DRIVE 73,False,False,WOODLANDS,WOODLANDS EAST,103.806198058319,1.44062992233001
POINT Z (103.889653921063 1.39922856580931 0),SHENG SIONG SUPERMARKET PTE LTD,338,ANCHORVALE CRESCENT,11,540338,CE17Q33A000,282C68222EDC4F50,338 ANCHORVALE CRESCENT,False,True,SENGKANG,ANCHORVALE,103.889653921063,1.39922856580931
POINT Z (103.879872489529 1.39158704139214 0),SHENG SIONG SUPERMARKET PTE LTD,417,FERNVALE LINK,11,790417,CE17Q32B000,DB116D0680A58A14,417 FERNVALE LINK,False,True,SENGKANG,FERNVALE,103.879872489529,1.39158704139214
POINT Z (103.791095177079 1.45132505304739 0),BHANDARI INTERNATIONAL PTE. LTD.,280,WOODLANDS INDUSTRIAL PARK E5 (PART OF),47,757322,NW17277E000,754CC3104AD59F36,280 WOODLANDS INDUSTRIAL PARK E5 (PART OF),False,False,WOODLANDS,SENOKO WEST,103.791095177079,1.45132505304739
POINT Z (103.779746864012 1.43351253350403 0),SHENG SIONG SUPERMARKET PTE LTD,4,WOODLANDS STREET 12,61,738623,NW17734V000,D150643A0053994F,4 WOODLANDS STREET 12,False,True,WOODLANDS,WOODLANDS WEST,103.779746864012,1.43351253350403
POINT Z (103.842908168065 1.28180062455801 0),WAN SIEW YOONG,4,SAGO LANE,103,50004,W02099P000,1559F07415BB5C46,4 SAGO LANE,False,False,OUTRAM,CHINATOWN,103.842908168065,1.28180062455801
POINT Z (103.859812582011 1.3282116947432 0),HAO MART PTE. LTD.,17,JALAN TENTERAM,128,321017,CE17M26A000,B981FFC6E81C1DDE,17 JALAN TENTERAM,False,True,NOVENA,BALESTIER,103.859812582011,1.3282116947432
POINT Z (103.75069463728 1.35925940699667 0),MCP FAIRMART PTE LTD,BLK 371,BUKIT BATOK STREET 31,324,650371,J92067N000,3FE8C9104F3EC555,BLK 371 BUKIT BATOK STREET 31,False,False,BUKIT BATOK,HONG KAH NORTH,103.75069463728,1.35925940699667
POINT Z (103.830811469037 1.27784876908556 0),HAO MART PTE. LTD.,146,JALAN BUKIT MERAH,1074,160146,CE17M36X000,EF320255C834747A,146 JALAN BUKIT MERAH,False,True,BUKIT MERAH,KAMPONG TIONG BAHRU,103.830811469037,1.27784876908556
POINT Z (103.839434735426 1.3008389164153 0),PAN PACIFIC INTERNATIONAL HOLDINGS PTE. LTD.,181,ORCHARD ROAD,1/3,238896,CE17L45A000,5DFD558C714597C1,181 ORCHARD ROAD,False,False,ORCHARD,SOMERSET,103.839434735426,1.3008389164153
POINT Z (103.892550605327 1.31867575851382 0),COLD STORAGE SINGAPORE (1983) PTE LTD,60,PAYA LEBAR ROAD,1/5,409051,SE14A83A000,74BC8EE7FCF50851,60 PAYA LEBAR ROAD,False,True,GEYLANG,GEYLANG EAST,103.892550605327,1.31867575851382
POINT Z (103.805009970565 1.2886146910195 0),COLD STORAGE SINGAPORE (1983) PTE LTD,370,ALEXANDRA ROAD,3/7,159953,CE07569B000,28E3628D372CD284,370 ALEXANDRA ROAD,False,True,QUEENSTOWN,MEI CHIN,103.805009970565,1.2886146910195
POINT Z (103.835776497586 1.42969848150358 0),COLD STORAGE SINGAPORE (1983) PTE LTD,930,YISHUN AVENUE 2,6/7,769098,NW08314K000,CABE56043689DB83,930 YISHUN AVENUE 2,False,True,YISHUN,YISHUN CENTRAL,103.835776497586,1.42969848150358
POINT Z (103.885079928732 1.35949663830554 0),COLD STORAGE SINGAPORE (1983) PTE LTD,205,HOUGANG STREET 21,133,530205,S02024X000,94714536A765270E,205 HOUGANG STREET 21,False,True,HOUGANG,LORONG AH SOO,103.885079928732,1.35949663830554
POINT Z (103.763750974319 1.30246409193291 0),SHENG SIONG SUPERMARKET PTE LTD,720,CLEMENTI WEST STREET 2,144,120720,SW05051J000,762A0F132FD34AA8,720 CLEMENTI WEST STREET 2,False,True,CLEMENTI,CLEMENTI WEST,103.763750974319,1.30246409193291
POINT Z (103.860912787999 1.3083652684116 0),PRIME SUPERMARKET LIMITED,803,KING GEORGE'S AVENUE,154,200803,E02042P000,CEECC163A7FA68F8,803 KING GEORGE'S AVENUE,False,True,KALLANG,LAVENDER,103.860912787999,1.3083652684116
POINT Z (103.934010241001 1.34873284070164 0),PRIME SUPERMARKET LIMITED,823,TAMPINES STREET 81,160,520823,S02040X000,10B92B6613DF8B9A,823 TAMPINES STREET 81,False,True,TAMPINES,TAMPINES WEST,103.934010241001,1.34873284070164
POINT Z (103.934912522809 1.34922418771454 0),COLD STORAGE SINGAPORE (1983) PTE LTD,829,TAMPINES STREET 81,284/8,520829,S02038E000,91161828AF70D176,829 TAMPINES STREET 81,False,True,TAMPINES,TAMPINES WEST,103.934912522809,1.34922418771454
POINT Z (103.785688733844 1.43600783793646 0),COLD STORAGE SINGAPORE (1983) PTE LTD,1,WOODLANDS SQUARE,31/32,738099,NW11384E000,2B67CDF8281E5570,1 WOODLANDS SQUARE,False,True,WOODLANDS,WOODLANDS REGIONAL CENTRE,103.785688733844,1.43600783793646
POINT Z (103.793416332651 1.43084006633623 0),COLD STORAGE SINGAPORE (1983) PTE LTD,548,WOODLANDS DRIVE 44,37/38,730548,B02035A000,60AC85121B68CA94,548 WOODLANDS DRIVE 44,False,True,WOODLANDS,WOODLANDS SOUTH,103.793416332651,1.43084006633623
POINT Z (103.854334496723 1.34064293307986 0),LIN POH LING,212,LORONG 8 TOA PAYOH,43/45,310212,SE06616X000,76E66AB46212193A,212 LORONG 8 TOA PAYOH,False,False,TOA PAYOH,LORONG 8 TOA PAYOH,103.854334496723,1.34064293307986
POINT Z (103.871861623795 1.35067551423916 0),COLD STORAGE SINGAPORE (1983) PTE LTD,23,SERANGOON CENTRAL,44/45,556083,SE10579K000,9C08ADA027E53A95,23 SERANGOON CENTRAL,False,True,SERANGOON,SERANGOON CENTRAL,103.871861623795,1.35067551423916
POINT Z (103.855786976518 1.30014248326866 0),COLD STORAGE SINGAPORE (1983) PTE LTD,230,VICTORIA STREET,16,188024,W02075K000,DF55DA57EF4B2A65,230 VICTORIA STREET,False,True,DOWNTOWN CORE,BUGIS,103.855786976518,1.30014248326866
POINT Z (103.633512282372 1.27164226263376 0),NAWAS GLOBAL PTE. LTD.,3,TUAS SOUTH STREET 12,16,636947,SW16224E000,6F98C1177D0D74D7,3 TUAS SOUTH STREET 12,False,False,TUAS,TUAS VIEW EXTENSION,103.633512282372,1.27164226263376
POINT Z (103.759406170784 1.40852996570468 0),SADIA MINIMART PTE LTD,11,MANDAI ESTATE,16,729908,NW15751L000,750AE5291894E1D8,11 MANDAI ESTATE,False,False,SUNGEI KADUT,GALI BATU,103.759406170784,1.40852996570468
POINT Z (103.844586298874 1.29151478613339 0),MEIDI-YA SINGAPORE CO (PTE) LTD,177,RIVER VALLEY ROAD,17,179030,W02094C000,444173284C175C3F,177 RIVER VALLEY ROAD,False,False,SINGAPORE RIVER,CLARKE QUAY,103.844586298874,1.29151478613339
POINT Z (103.845047628503 1.30074756196423 0),IROHA INTERNATIONAL PTE. LTD.,68,ORCHARD ROAD,17,238839,CE16I13V000,79227FDE25FAC522,68 ORCHARD ROAD,False,False,MUSEUM,DHOBY GHAUT,103.845047628503,1.30074756196423
POINT Z (103.842561031003 1.29225958853816 0),COLD STORAGE SINGAPORE (1983) PTE LTD,81,CLEMENCEAU AVENUE,18,239917,W02096A000,EA11CC1357BF0A8E,81 CLEMENCEAU AVENUE,False,True,SINGAPORE RIVER,ROBERTSON QUAY,103.842561031003,1.29225958853816
POINT Z (103.826940812301 1.29301786111443 0),LITTLE FARMS PTE. LTD.,491,RIVER VALLEY ROAD,20,248371,CE05380X000,ABBD171C72E40590,491 RIVER VALLEY ROAD,False,False,TANGLIN,CHATSWORTH,103.826940812301,1.29301786111443
POINT Z (103.738292804658 1.32213636288701 0),SHENG SIONG SUPERMARKET PTE LTD,61,TEBAN GARDENS ROAD,21,600061,C02080E000,1CABEB87703EAA76,61 TEBAN GARDENS ROAD,False,True,JURONG EAST,TEBAN GARDENS,103.738292804658,1.32213636288701
POINT Z (103.718403752899 1.37761083897742 0),PHAN NEE INVESTMENTS (S) PTE LTD,500,OLD CHOA CHU KANG ROAD,21,698924,SW16E98J000,748227E4D6EA7F36,500 OLD CHOA CHU KANG ROAD,False,False,WESTERN WATER CATCHMENT,WESTERN WATER CATCHMENT,103.718403752899,1.37761083897742
POINT Z (103.946201244496 1.33177581668164 0),COLD STORAGE SINGAPORE (1983) PTE LTD,430,UPPER CHANGI ROAD,47,487048,SE14377P000,4FA16B3D7A26B199,430 UPPER CHANGI ROAD,False,True,BEDOK,BEDOK NORTH,103.946201244496,1.33177581668164
POINT Z (103.960839727952 1.37558830763911 0),RAW MARKET PTE. LTD.,11,PASIR RIS LINK,48,518180,NE15760A000,24BE17B4638FC989,11 PASIR RIS LINK,False,False,PASIR RIS,PASIR RIS PARK,103.960839727952,1.37558830763911
POINT Z (103.796844046992 1.3119219563809 0),THE BUTCHER (SINGAPORE) PTE. LTD.,44,JALAN MERAH SAGA,50,278116,B03074A000,BD1045305A91116B,44 JALAN MERAH SAGA,False,False,BUKIT TIMAH,LEEDON PARK,103.796844046992,1.3119219563809
POINT Z (103.839685380422 1.43359514246154 0),HAO MART PTE. LTD.,239,YISHUN RING ROAD,1150,760239,B85098V000,3280E632A64A7C13,239 YISHUN RING ROAD,False,True,YISHUN,NORTHLAND,103.839685380422,1.43359514246154
POINT Z (103.774632799754 1.34207496300068 0),SEOUL BUTCHERY PTE. LTD.,13,YUK TONG AVENUE,,596318,SW18715E000,543410C59C75B3F4,13 YUK TONG AVENUE,False,False,BUKIT TIMAH,ANAK BUKIT,103.774632799754,1.34207496300068
POINT Z (103.820073449022 1.45982817398421 0),V SURESH KUMAR,51,ADMIRALTY ROAD WEST - LODGE 1,,757443,NW12H40C000,A943479A145BB3F9,51 ADMIRALTY ROAD WEST - LODGE 1,False,False,SEMBAWANG,SEMBAWANG NORTH,103.820073449022,1.45982817398421
POINT Z (103.793133813234 1.33899462247146 0),COLD STORAGE SINGAPORE (1983) PTE LTD,200,TURF CLUB ROAD,,287994,W02140C000,F5D07D3E3FBEC23E,200 TURF CLUB ROAD,False,True,BUKIT TIMAH,SWISS CLUB,103.793133813234,1.33899462247146
POINT Z (103.883646674404 1.31317509715873 0),HAO MART PTE. LTD.,448/450,GEYLANG ROAD,,389407,SE18184V000,E55DB2F74B8E0811,448/450 GEYLANG ROAD,False,True,GEYLANG,ALJUNIED,103.883646674404,1.31317509715873
POINT Z (103.835240311923 1.30372322367268 0),COLD STORAGE SINGAPORE (1983) PTE LTD,290,ORCHARD ROAD,14/15,238859,W02070V000,8DB4EB06E8BA7AD1,290 ORCHARD ROAD,False,True,ORCHARD,BOULEVARD,103.835240311923,1.30372322367268
POINT Z (103.852844804264 1.27737236043423 0),COLD STORAGE SINGAPORE (1983) PTE LTD,5,STRAITS VIEW,15/16,18935,CE17J36N000,991B4FCD2D19C3BB,5 STRAITS VIEW,False,True,DOWNTOWN CORE,CENTRAL SUBZONE,103.852844804264,1.27737236043423
POINT Z (103.845047628503 1.30074756196423 0),COLD STORAGE SINGAPORE (1983) PTE LTD,68,ORCHARD ROAD,15/16,238839,W02088A000,79227FDEDF316E6A,68 ORCHARD ROAD,False,True,MUSEUM,DHOBY GHAUT,103.845047628503,1.30074756196423
POINT Z (103.831757911005 1.29380236091495 0),COLD STORAGE SINGAPORE (1983) PTE LTD,1,KIM SENG PROMENADE,18/19,237994,W02068J000,4E6DAE686794402B,1 KIM SENG PROMENADE,False,True,SINGAPORE RIVER,ROBERTSON QUAY,103.831757911005,1.29380236091495
POINT Z (103.634163915466 1.27030978388319 0),POPULAR SUPERMARKET PTE LTD,12,TUAS SOUTH STREET 13,18/19,636937,SW16942C000,D3420F308AFB7FBE,12 TUAS SOUTH STREET 13,False,False,TUAS,TUAS VIEW EXTENSION,103.634163915466,1.27030978388319
POINT Z (103.634163915466 1.27030978388319 0),SADIA SUPERMARKET & TRADING (S) PTE. LTD.,12,TUAS SOUTH STREET 13,20/21,636937,SW16901A000,D3420F303C9A8A34,12 TUAS SOUTH STREET 13,False,False,TUAS,TUAS VIEW EXTENSION,103.634163915466,1.27030978388319
POINT Z (103.841921096861 1.24775861864545 0),COLD STORAGE SINGAPORE (1983) PTE LTD,31,OCEAN WAY,26/27,98375,SW12N25V000,645F098FE4381FAE,31 OCEAN WAY,False,True,SOUTHERN ISLANDS,SENTOSA,103.841921096861,1.24775861864545
POINT Z (103.82734585139 1.31943617521461 0),COLD STORAGE SINGAPORE (1983) PTE LTD,383,BUKIT TIMAH ROAD,09A,259727,CE10B87J000,1E3FB9185A1D6307,383 BUKIT TIMAH ROAD,False,True,TANGLIN,NASSIM,103.82734585139,1.31943617521461
POINT Z (103.766170532015 1.38529556248789 0),COLD STORAGE SINGAPORE (1983) PTE LTD,524A,JELAPANG ROAD,13/18,671524,B02011P000,B0E158DA328C5436,524A JELAPANG ROAD,False,True,BUKIT PANJANG,SAUJANA,103.766170532015,1.38529556248789
POINT Z (103.849881701299 1.34962234403109 0),COLD STORAGE SINGAPORE (1983) PTE LTD,512,BISHAN STREET 13,524,570512,CE09512V000,EF649DA0A8311BEA,512 BISHAN STREET 13,False,True,BISHAN,BISHAN EAST,103.849881701299,1.34962234403109
POINT Z (103.850483008706 1.33166183429417 0),NTUC FAIRPRICE CO-OPERATIVE LTD,192,LORONG 4 TOA PAYOH,672,310192,S02051L000,BA393865D9429B41,192 LORONG 4 TOA PAYOH,True,True,TOA PAYOH,TOA PAYOH CENTRAL,103.850483008706,1.33166183429417
POINT Z (103.953125974103 1.36032331726566 0),NTUC FAIRPRICE CO-OPERATIVE LTD,475,TAMPINES STREET 44,145,520475,S02052K000,9018E3DE81D128D1,475 TAMPINES STREET 44,True,True,TAMPINES,TAMPINES EAST,103.953125974103,1.36032331726566
POINT Z (103.948128932393 1.34837104824236 0),NTUC FAIRPRICE CO-OPERATIVE LTD,107,TAMPINES STREET 11,353/9,521107,S02053J000,26741892D38D0A04,107 TAMPINES STREET 11,True,True,TAMPINES,TAMPINES EAST,103.948128932393,1.34837104824236
POINT Z (103.90447160757 1.39219777362583 0),NTUC FAIRPRICE CO-OPERATIVE LTD,11,RIVERVALE CRESCENT,1,545082,S02054E000,67F93295E5A48722,11 RIVERVALE CRESCENT,True,True,SENGKANG,RIVERVALE,103.90447160757,1.39219777362583
POINT Z (103.901558027563 1.38493201671183 0),NTUC FAIRPRICE CO-OPERATIVE LTD,118,RIVERVALE DRIVE,8,540118,S02055C000,79B5F430300EF1B5,118 RIVERVALE DRIVE,True,True,SENGKANG,RIVERVALE,103.901558027563,1.38493201671183
POINT Z (103.830919788426 1.35466901882051 0),NTUC FAIRPRICE CO-OPERATIVE LTD,301,UPPER THOMSON ROAD,25,574408,S02056B000,1A6B6A0A96F41CFD,301 UPPER THOMSON ROAD,True,True,BISHAN,UPPER THOMSON,103.830919788426,1.35466901882051
POINT Z (103.847050353797 1.33296549379038 0),NTUC FAIRPRICE CO-OPERATIVE LTD,500,LORONG 6 TOA PAYOH,,310500,S02103A000,A5C9705C273748FD,500 LORONG 6 TOA PAYOH,True,True,TOA PAYOH,TOA PAYOH CENTRAL,103.847050353797,1.33296549379038
POINT Z (103.910689656957 1.32397688357175 0),NTUC FAIRPRICE CO-OPERATIVE LTD,110,LENGKONG TIGA,233/5,410110,S91085V000,700C0F2E35957CEA,110 LENGKONG TIGA,True,True,BEDOK,KEMBANGAN,103.910689656957,1.32397688357175
POINT Z (103.843785259758 1.35722282377111 0),NTUC FAIRPRICE CO-OPERATIVE LTD,279,BISHAN STREET 24,62/64,570279,S94081C000,BA6EA24E581F55D2,279 BISHAN STREET 24,True,True,BISHAN,MARYMOUNT,103.843785259758,1.35722282377111
POINT Z (103.936207570696 1.37976753619581 0),NTUC FAIRPRICE CO-OPERATIVE LTD,734,PASIR RIS STREET 72,37,510734,S98084K000,B2A48B8DDF299D93,734 PASIR RIS STREET 72,True,True,PASIR RIS,PASIR RIS WEST,103.936207570696,1.37976753619581
POINT Z (103.898764898642 1.31553964712804 0),NTUC FAIRPRICE CO-OPERATIVE LTD,2,JOO CHIAT ROAD,1139,420002,SE04012L000,A54DA254F5F99AFB,2 JOO CHIAT ROAD,True,True,GEYLANG,GEYLANG EAST,103.898764898642,1.31553964712804
POINT Z (103.884763855717 1.30782737247273 0),NTUC FAIRPRICE CO-OPERATIVE LTD,41,JALAN TIGA,5,390041,SE04130B000,93EC66CC6F37312F,41 JALAN TIGA,True,True,GEYLANG,ALJUNIED,103.884763855717,1.30782737247273
POINT Z (103.985169647877 1.35437073798267 0),NTUC FAIRPRICE CO-OPERATIVE LTD,65,AIRPORT BOULEVARD,10,819663,SE07559P000,B00E2FE630585015,65 AIRPORT BOULEVARD,True,True,CHANGI,CHANGI AIRPORT,103.985169647877,1.35437073798267
POINT Z (103.903266275569 1.32118979604503 0),NTUC FAIRPRICE CO-OPERATIVE LTD,5,EUNOS CRESCENT,2619,400005,SE09706N000,B7F681A9F638088F,5 EUNOS CRESCENT,True,True,GEYLANG,GEYLANG EAST,103.903266275569,1.32118979604503
POINT Z (103.871861623795 1.35067551423916 0),NTUC FAIRPRICE CO-OPERATIVE LTD,23,SERANGOON CENTRAL,42,556083,SE10564B000,9C08ADA0824D1D7A,23 SERANGOON CENTRAL,True,True,SERANGOON,SERANGOON CENTRAL,103.871861623795,1.35067551423916
POINT Z (103.938051292004 1.33233467983413 0),NTUC FAIRPRICE CO-OPERATIVE LTD,89,BEDOK NORTH STREET 4,77/79,460089,SE11071C000,47C2F906FB4A8869,89 BEDOK NORTH STREET 4,True,True,BEDOK,BEDOK NORTH,103.938051292004,1.33233467983413
POINT Z (103.888544913634 1.31414996835354 0),NTUC FAIRPRICE CO-OPERATIVE LTD,612-620,GEYLANG ROAD,,389551,SE11577E000,D12B7744F9A097B3,612-620 GEYLANG ROAD,True,True,GEYLANG,ALJUNIED,103.888544913634,1.31414996835354
POINT Z (103.962389306789 1.3343251542009 0),NTUC FAIRPRICE CO-OPERATIVE LTD,5,CHANGI BUSINESS PARK CENTRAL 1,8/11,486038,SE11947P000,5B8B133D441E3A0A,5 CHANGI BUSINESS PARK CENTRAL 1,True,True,TAMPINES,XILIN,103.962389306789,1.3343251542009
POINT Z (103.963653907777 1.33491977399192 0),NTUC FAIRPRICE CO-OPERATIVE LTD,8,CHANGI BUSINESS PARK AVENUE 1,,486018,SE12G19X000,173987F2420DE201,8 CHANGI BUSINESS PARK AVENUE 1,True,True,TAMPINES,XILIN,103.963653907777,1.33491977399192
POINT Z (103.929267657363 1.32477207902253 0),NTUC FAIRPRICE CO-OPERATIVE LTD,311,NEW UPPER CHANGI ROAD,60,467360,SE13135L000,BA23392A3AA4C5D9,311 NEW UPPER CHANGI ROAD,True,True,BEDOK,BEDOK NORTH,103.929267657363,1.32477207902253
POINT Z (103.9415687075 1.32424554991112 0),NTUC FAIRPRICE CO-OPERATIVE LTD,57,NEW UPPER CHANGI ROAD,1334,461057,SE13S71X000,BF75AB36E33F82E0,57 NEW UPPER CHANGI ROAD,True,True,BEDOK,BEDOK SOUTH,103.9415687075,1.32424554991112
POINT Z (103.988750977656 1.3551909440899 0),NTUC FAIRPRICE CO-OPERATIVE LTD,60,AIRPORT BOULEVARD,29,819643,SE13U39E000,C0ECA33ED08ABFAE,60 AIRPORT BOULEVARD,True,True,CHANGI,CHANGI AIRPORT,103.988750977656,1.3551909440899
POINT Z (103.902850380057 1.30385030848158 0),NTUC FAIRPRICE CO-OPERATIVE LTD,30,EAST COAST ROAD,6/9,428751,SE13U91V000,915404DD609FDB06,30 EAST COAST ROAD,True,True,MARINE PARADE,MARINE PARADE,103.902850380057,1.30385030848158
POINT Z (103.867036838441 1.33253590792541 0),NTUC FAIRPRICE CO-OPERATIVE LTD,6,POTONG PASIR AVENUE 2,1,358361,SE14441L000,3D99EC241C2C20EF,6 POTONG PASIR AVENUE 2,True,True,TOA PAYOH,POTONG PASIR,103.867036838441,1.33253590792541
POINT Z (103.872750707738 1.30384327849927 0),NTUC FAIRPRICE CO-OPERATIVE LTD,1,STADIUM PLACE,29,397628,SE14467N000,9A762656DA66BDBE,1 STADIUM PLACE,True,True,KALLANG,TANJONG RHU,103.872750707738,1.30384327849927
POINT Z (103.953024500232 1.34270618915228 0),NTUC FAIRPRICE CO-OPERATIVE LTD,3,SIMEI STREET 6,1,528833,SE14775X000,72D4FFF12CCE16D9,3 SIMEI STREET 6,True,True,TAMPINES,SIMEI,103.953024500232,1.34270618915228
POINT Z (103.879294502591 1.33177055027825 0),NTUC FAIRPRICE CO-OPERATIVE LTD,401,MACPHERSON ROAD,22/29,368125,SE16122V000,8636C035C8D92C78,401 MACPHERSON ROAD,True,True,TOA PAYOH,JOO SENG,103.879294502591,1.33177055027825
POINT Z (103.888762709438 1.33653867658135 0),NTUC FAIRPRICE CO-OPERATIVE LTD,18,TAI SENG STREET,13,539775,SE17082P000,97B865E2E4C0509D,18 TAI SENG STREET,True,True,HOUGANG,TAI SENG,103.888762709438,1.33653867658135
POINT Z (103.894731355106 1.31886941200841 0),NTUC FAIRPRICE CO-OPERATIVE LTD,10,EUNOS ROAD 8,101,408600,SE17481P000,B03AE698B7AEC878,10 EUNOS ROAD 8,True,True,GEYLANG,GEYLANG EAST,103.894731355106,1.31886941200841
POINT Z (103.896327021939 1.3041644719774 0),JMD RETAIL PTE. LTD.,330,TANJONG KATONG ROAD,,437106,SE18544L000,E466075B010BA0B3,330 TANJONG KATONG ROAD,False,False,MARINE PARADE,MOUNTBATTEN,103.896327021939,1.3041644719774
POINT Z (103.8100313205 1.28112227851946 0),NTUC FAIRPRICE CO-OPERATIVE LTD,108,DEPOT ROAD,1,100108,SW04158X000,53334C1CA869F4BD,108 DEPOT ROAD,True,True,BUKIT MERAH,DEPOT ROAD,103.8100313205,1.28112227851946
POINT Z (103.821589250415 1.26389581950121 0),COLD STORAGE SINGAPORE (1983) PTE LTD,1,HARBOURFRONT WALK,23,98585,SW06590A000,B44F385131EF94AD,1 HARBOURFRONT WALK,False,True,BUKIT MERAH,MARITIME SQUARE,103.821589250415,1.26389581950121
POINT Z (103.781697201377 1.30476357340306 0),NTUC FAIRPRICE CO-OPERATIVE LTD,28,DOVER CRESCENT,83,130028,SW07481A000,C2D30D6A61C98791,28 DOVER CRESCENT,True,True,QUEENSTOWN,DOVER,103.781697201377,1.30476357340306
POINT Z (103.75311841662 1.38003057765068 0),NTUC FAIRPRICE CO-OPERATIVE LTD,140,TECK WHYE LANE,351,680140,SW08821N000,1012E7DDBD421739,140 TECK WHYE LANE,True,True,CHOA CHU KANG,TECK WHYE,103.75311841662,1.38003057765068
POINT Z (103.705351000578 1.33931503939035 0),NTUC FAIRPRICE CO-OPERATIVE LTD,63,JURONG WEST CENTRAL 3,,648331,SW08A59X000,F84D5621D7F59F0F,63 JURONG WEST CENTRAL 3,True,True,JURONG WEST,JURONG WEST CENTRAL,103.705351000578,1.33931503939035
POINT Z (103.746558069293 1.39730189954737 0),NTUC FAIRPRICE CO-OPERATIVE LTD,21,CHOA CHU KANG NORTH 6,1/7,689578,SW09032C000,D2D1D58DFEF0EDA7,21 CHOA CHU KANG NORTH 6,True,True,CHOA CHU KANG,YEW TEE,103.746558069293,1.39730189954737
POINT Z (103.747329724589 1.39712885652678 0),NTUC FAIRPRICE CO-OPERATIVE LTD,61,CHOA CHU KANG DRIVE,1,689715,SW09285K000,FDB6807BE8EE6429,61 CHOA CHU KANG DRIVE,True,True,CHOA CHU KANG,YEW TEE,103.747329724589,1.39712885652678
POINT Z (103.630340087983 1.31146784739883 0),LAMIAH ENTERPRISE PTE. LTD.,5,TECH PARK CRESCENT,2,638127,SW09752V000,699B1F39DA240940,5 TECH PARK CRESCENT,False,False,TUAS,TUAS VIEW,103.630340087983,1.31146784739883
POINT Z (103.764248204763 1.31485322616185 0),NTUC FAIRPRICE CO-OPERATIVE LTD,3155,COMMONWEALTH AVENUE WEST,,129588,SW10A16E000,644570985CDF911C,3155 COMMONWEALTH AVENUE WEST,True,True,CLEMENTI,CLEMENTI CENTRAL,103.764248204763,1.31485322616185
POINT Z (103.808934817338 1.27338252999837 0),NTUC FAIRPRICE CO-OPERATIVE LTD,78A,TELOK BLANGAH STREET 32,1,101078,SW11452C000,B163FC1A7F3CF0FB,78A TELOK BLANGAH STREET 32,True,True,BUKIT MERAH,TELOK BLANGAH DRIVE,103.808934817338,1.27338252999837
POINT Z (103.801126955437 1.27367658025919 0),NTUC FAIRPRICE CO-OPERATIVE LTD,460,ALEXANDRA ROAD,,119963,SW11A26P000,33F754B4DFB6E088,460 ALEXANDRA ROAD,True,True,QUEENSTOWN,PASIR PANJANG 2,103.801126955437,1.27367658025919
POINT Z (103.740176741625 1.33326818232541 0),NTUC FAIRPRICE CO-OPERATIVE LTD,2,JURONG EAST CENTRAL 1,12,609731,SW12C98J000,D3E25B1CE998209D,2 JURONG EAST CENTRAL 1,True,True,JURONG EAST,JURONG GATEWAY,103.740176741625,1.33326818232541
POINT Z (103.771350566042 1.31427860895568 0),NTUC FAIRPRICE CO-OPERATIVE LTD,352,CLEMENTI AVENUE 2,141,120352,SW12F58E000,562A45954C098582,352 CLEMENTI AVENUE 2,True,True,CLEMENTI,CLEMENTI NORTH,103.771350566042,1.31427860895568
POINT Z (103.72430732776 1.34833334908052 0),NTUC FAIRPRICE CO-OPERATIVE LTD,498,JURONG WEST STREET 41,,640498,SW12H20A000,E2CA10A4AA0467CC,498 JURONG WEST STREET 41,True,True,JURONG WEST,HONG KAH,103.72430732776,1.34833334908052
POINT Z (103.759080943921 1.31188596098541 0),NTUC FAIRPRICE CO-OPERATIVE LTD,502,WEST COAST DRIVE,41,120502,SW12O05A000,4455CEE928BD0F3E,502 WEST COAST DRIVE,True,True,CLEMENTI,CLEMENTI CENTRAL,103.759080943921,1.31188596098541
POINT Z (103.784084020187 1.29277432695785 0),NTUC FAIRPRICE CO-OPERATIVE LTD,1,LOWER KENT RIDGE ROAD,16,119082,SW13245V000,BE502BB90FDBD6E2,1 LOWER KENT RIDGE ROAD,True,True,QUEENSTOWN,NATIONAL UNIVERSITY OF S'PORE,103.784084020187,1.29277432695785
POINT Z (103.757044586256 1.34770147779384 0),NTUC FAIRPRICE CO-OPERATIVE LTD,280,BUKIT BATOK EAST AVENUE 3,315,650280,SW13Q24X000,32C4A6B5B680E026,280 BUKIT BATOK EAST AVENUE 3,True,True,BUKIT BATOK,BUKIT BATOK EAST,103.757044586256,1.34770147779384
POINT Z (103.743170430901 1.33320021671365 0),NTUC FAIRPRICE CO-OPERATIVE LTD,50,JURONG GATEWAY ROAD,21/22,608549,SW13T12J000,469AAB3D4F6721E5,50 JURONG GATEWAY ROAD,True,True,JURONG EAST,JURONG GATEWAY,103.743170430901,1.33320021671365
POINT Z (103.746847123122 1.36650698092595 0),NTUC FAIRPRICE CO-OPERATIVE LTD,2,BUKIT BATOK WEST AVENUE 7,10,659003,SW14633X000,4075A5C97BF74FD4,2 BUKIT BATOK WEST AVENUE 7,True,True,BUKIT BATOK,HONG KAH NORTH,103.746847123122,1.36650698092595
POINT Z (103.631572325734 1.3110024025961 0),SHINVA AGRO FOODS PTE. LTD.,11,TECH PARK CRESCENT,3,638121,SW14824J000,D901156F86966DDE,11 TECH PARK CRESCENT,False,False,TUAS,TUAS VIEW,103.631572325734,1.3110024025961
POINT Z (103.67809636872 1.32460665101076 0),NTUC FAIRPRICE CO-OPERATIVE LTD,1,JOO KOON CIRCLE,21,629117,SW14951X000,F1D64DC8D496ACF9,1 JOO KOON CIRCLE,True,True,PIONEER,JOO KOON,103.67809636872,1.32460665101076
POINT Z (103.627788892117 1.30091146604893 0),SHINVA AGRO FOODS PTE. LTD.,115,TUAS VIEW WALK 1,,637734,SW14B28C000,A9DE0AD466C95728,115 TUAS VIEW WALK 1,False,False,TUAS,TUAS VIEW,103.627788892117,1.30091146604893
POINT Z (103.743099576144 1.392073879435 0),NTUC FAIRPRICE CO-OPERATIVE LTD,533,CHOA CHU KANG STREET 51,11,680533,SW15796X000,A16EBC8EBD498EA6,533 CHOA CHU KANG STREET 51,True,True,CHOA CHU KANG,CHOA CHU KANG NORTH,103.743099576144,1.392073879435
POINT Z (103.742651522893 1.32052027199062 0),NTUC FAIRPRICE CO-OPERATIVE LTD,37,TEBAN GARDENS ROAD,,600037,SW15968N000,53A4EFCFCC3D4DFA,37 TEBAN GARDENS ROAD,True,True,JURONG EAST,TEBAN GARDENS,103.742651522893,1.32052027199062
POINT Z (103.720857418902 1.37193280471552 0),PHAN NEE INVESTMENTS (S) PTE LTD,500,OLD CHOA CHU KANG ROAD,2,698928,SW16815P000,BAD7F5812CF75584,500 OLD CHOA CHU KANG ROAD,False,False,WESTERN WATER CATCHMENT,WESTERN WATER CATCHMENT,103.720857418902,1.37193280471552
POINT Z (103.739199499869 1.34259104167685 0),NTUC FAIRPRICE CO-OPERATIVE LTD,249,JURONG EAST STREET 24,106,600249,SW16D83E000,9AC5B4E2A87A7A6E,249 JURONG EAST STREET 24,True,True,JURONG EAST,YUHUA EAST,103.739199499869,1.34259104167685
POINT Z (103.803023763143 1.28220136427594 0),THE QUALITYMART DEPOT PTE. LTD.,180,DEPOT ROAD,4,109684,SW18581V000,CF9C4895C171420F,180 DEPOT ROAD,False,False,BUKIT MERAH,DEPOT ROAD,103.803023763143,1.28220136427594
POINT Z (103.685418471527 1.34813378503649 0),COLD STORAGE SINGAPORE (1983) PTE LTD,35,STUDENTS WALK,,639548,SW18A40J000,6CF840C05D0A7F10,35 STUDENTS WALK,False,True,WESTERN WATER CATCHMENT,WESTERN WATER CATCHMENT,103.685418471527,1.34813378503649
POINT Z (103.743948448003 1.35303824733614 0),SHENG SIONG SUPERMARKET PTE LTD,451,BUKIT BATOK WEST AVENUE 6,10,650451,SW18F69X000,3A6DBDBC1432AB52,451 BUKIT BATOK WEST AVENUE 6,False,True,BUKIT BATOK,BRICKWORKS,103.743948448003,1.35303824733614
POINT Z (103.797187338711 1.27604519475402 0),HONESTBEE PTE. LTD.,34,BOON LEAT TERRACE,,119866,SW18G66X000,DE2257E6D124282F,34 BOON LEAT TERRACE,False,False,QUEENSTOWN,PASIR PANJANG 2,103.797187338711,1.27604519475402
POINT Z (103.826935081592 1.28646345680433 0),NTUC FAIRPRICE CO-OPERATIVE LTD,302,TIONG BAHRU ROAD,1,168732,W02072P000,C55DEE69E7AAF209,302 TIONG BAHRU ROAD,True,True,BUKIT MERAH,TIONG BAHRU STATION,103.826935081592,1.28646345680433
POINT Z (103.817642874205 1.28311950277785 0),NTUC FAIRPRICE CO-OPERATIVE LTD,166,BUKIT MERAH CENTRAL,3527,150166,W02083K000,4BE5C143A910D3C6,166 BUKIT MERAH CENTRAL,True,True,BUKIT MERAH,BUKIT MERAH,103.817642874205,1.28311950277785
POINT Z (103.851055636335 1.32512653292631 0),NTUC FAIRPRICE CO-OPERATIVE LTD,360,BALESTIER ROAD,0,329783,W02084J000,7DE69C15A72F9F33,360 BALESTIER ROAD,True,True,NOVENA,BALESTIER,103.851055636335,1.32512653292631
POINT Z (103.826793758818 1.28977814003505 0),NTUC FAIRPRICE CO-OPERATIVE LTD,50,HAVELOCK ROAD,755,160050,W02086C000,EDD106F54293EF96,50 HAVELOCK ROAD,True,True,BUKIT MERAH,BUKIT HO SWEE,103.826793758818,1.28977814003505
POINT Z (103.843006122101 1.27624052975614 0),NTUC FAIRPRICE CO-OPERATIVE LTD,5,TANJONG PAGAR PLAZA,1,81005,W02092J000,FECB787EB52CC718,5 TANJONG PAGAR PLAZA,True,True,OUTRAM,CHINATOWN,103.843006122101,1.27624052975614
POINT Z (103.838533933775 1.29727532047679 0),NTUC FAIRPRICE CO-OPERATIVE LTD,131,KILLINEY ROAD,"01,02",239571,W02239E000,167A1DC3F2F1FBE8,131 KILLINEY ROAD,True,True,RIVER VALLEY,OXLEY,103.838533933775,1.29727532047679
POINT Z (103.763993951638 1.38054244056369 0),NTUC FAIRPRICE CO-OPERATIVE LTD,1,JELEBU ROAD,15,677743,B02020N000,E3FC0A790D9DA49D,1 JELEBU ROAD,True,True,BUKIT PANJANG,JELEBU,103.763993951638,1.38054244056369
POINT Z (103.819462105427 1.44822653003389 0),NTUC FAIRPRICE CO-OPERATIVE LTD,30,SEMBAWANG DRIVE,1/3,757713,B02021L000,50949CAD1F658572,30 SEMBAWANG DRIVE,True,True,SEMBAWANG,SEMBAWANG CENTRAL,103.819462105427,1.44822653003389
POINT Z (103.774051198699 1.43262602939439 0),NTUC FAIRPRICE CO-OPERATIVE LTD,71,WOODLANDS AVENUE 3,1,739044,B02022K000,F1DA7D4DC4AA14B7,71 WOODLANDS AVENUE 3,True,True,WOODLANDS,WOODLANDS WEST,103.774051198699,1.43262602939439
POINT Z (103.79513640221 1.43755656449988 0),NTUC FAIRPRICE CO-OPERATIVE LTD,888,WOODLANDS DRIVE 50,757,730888,B02024E000,A76A3FA3060EE880,888 WOODLANDS DRIVE 50,True,True,WOODLANDS,MIDVIEW,103.79513640221,1.43755656449988
POINT Z (103.846595550971 1.42452848118598 0),NTUC FAIRPRICE CO-OPERATIVE LTD,414,YISHUN RING ROAD,1853,760414,B02025C000,DB8BB7E530A7811F,414 YISHUN RING ROAD,True,True,YISHUN,YISHUN EAST,103.846595550971,1.42452848118598
POINT Z (103.781136890158 1.42919468259866 0),NTUC FAIRPRICE CO-OPERATIVE LTD,30,WOODLANDS AVENUE 1,,739065,B02034B000,AC5343DCF943E46A,30 WOODLANDS AVENUE 1,True,True,WOODLANDS,WOODGROVE,103.781136890158,1.42919468259866
POINT Z (103.83499514286 1.42952522056756 0),NTUC FAIRPRICE CO-OPERATIVE LTD,301,YISHUN AVENUE 2,2,769093,B02093B000,8E1D41DB11B8825E,301 YISHUN AVENUE 2,True,True,YISHUN,YISHUN WEST,103.83499514286,1.42952522056756
POINT Z (103.835218187743 1.41698315581696 0),NTUC FAIRPRICE CO-OPERATIVE LTD,849,YISHUN RING ROAD,3703,760849,B02099L000,B35ACF8E2815B407,849 YISHUN RING ROAD,True,True,YISHUN,YISHUN SOUTH,103.835218187743,1.41698315581696
POINT Z (103.760218439756 1.38509601466743 0),NTUC FAIRPRICE CO-OPERATIVE LTD,628,SENJA ROAD,1,670628,B03099C000,1330E9CA8B3A45B7,628 SENJA ROAD,True,True,BUKIT PANJANG,SENJA,103.760218439756,1.38509601466743
POINT Z (103.841624088452 1.36655829857198 0),NTUC FAIRPRICE CO-OPERATIVE LTD,215,ANG MO KIO AVENUE 1,877,560215,B98014C000,D513E0661525BF90,215 ANG MO KIO AVENUE 1,True,True,ANG MO KIO,SHANGRI-LA,103.841624088452,1.36655829857198
POINT Z (103.84403989942 1.41103598112316 0),NTUC FAIRPRICE CO-OPERATIVE LTD,1,ORCHID CLUB ROAD,34,769162,B99041L000,F90120CBD2BCBA51,1 ORCHID CLUB ROAD,True,True,YISHUN,LOWER SELETAR,103.84403989942,1.41103598112316
POINT Z (103.809999578549 1.32383512680832 0),NTUC FAIRPRICE CO-OPERATIVE LTD,587,BUKIT TIMAH ROAD,,269707,C02034X000,AC7575B726B5FFD7,587 BUKIT TIMAH ROAD,True,True,BUKIT TIMAH,CORONATION ROAD,103.809999578549,1.32383512680832
POINT Z (103.765476758596 1.31248299329666 0),NTUC FAIRPRICE CO-OPERATIVE LTD,451,CLEMENTI AVENUE 3,307,120451,C02035P000,EFB6758D47B36C67,451 CLEMENTI AVENUE 3,True,True,CLEMENTI,CLEMENTI CENTRAL,103.765476758596,1.31248299329666
POINT Z (103.778560473793 1.33865677093942 0),NTUC FAIRPRICE CO-OPERATIVE LTD,1,JALAN ANAK BUKIT,1,588996,C02036N000,E5E781D6EA88B7A6,1 JALAN ANAK BUKIT,True,True,BUKIT TIMAH,ANAK BUKIT,103.778560473793,1.33865677093942
POINT Z (103.739371389066 1.33375343289468 0),NTUC FAIRPRICE CO-OPERATIVE LTD,135,JURONG EAST STREET 13,337,600135,C02037L000,6D7812A1351B491B,135 JURONG EAST STREET 13,True,True,JURONG EAST,JURONG GATEWAY,103.739371389066,1.33375343289468
POINT Z (103.706460886826 1.33983014805774 0),NTUC FAIRPRICE CO-OPERATIVE LTD,1,JURONG WEST CENTRAL 2,9,648886,C02038K000,CB59096738AA19D4,1 JURONG WEST CENTRAL 2,True,True,JURONG WEST,JURONG WEST CENTRAL,103.706460886826,1.33983014805774
POINT Z (103.722452888408 1.33205937638185 0),NTUC FAIRPRICE CO-OPERATIVE LTD,63/66,YUNG KUANG ROAD,,610063,C02040A000,86615D3A14841744,63/66 YUNG KUANG ROAD,True,True,JURONG WEST,TAMAN JURONG,103.722452888408,1.33205937638185
POINT Z (103.720268020639 1.33504201869474 0),NTUC FAIRPRICE CO-OPERATIVE LTD,399,YUNG SHENG ROAD,,610399,C02041V000,D5B771676FE02444,399 YUNG SHENG ROAD,True,True,JURONG WEST,TAMAN JURONG,103.720268020639,1.33504201869474
POINT Z (103.74280788296 1.34716235926513 0),NTUC FAIRPRICE CO-OPERATIVE LTD,166,BUKIT BATOK WEST AVENUE 8,,650166,C02053L000,FD7B034D6FAD7B21,166 BUKIT BATOK WEST AVENUE 8,True,True,BUKIT BATOK,BUKIT BATOK WEST,103.74280788296,1.34716235926513
POINT Z (103.74933452639 1.3487108014327 0),NTUC FAIRPRICE CO-OPERATIVE LTD,10,BUKIT BATOK CENTRAL,8,659958,C02104B000,7229CB311386809E,10 BUKIT BATOK CENTRAL,True,True,BUKIT BATOK,BUKIT BATOK CENTRAL,103.74933452639,1.3487108014327
POINT Z (103.731219147651 1.34551209957725 0),NTUC FAIRPRICE CO-OPERATIVE LTD,BLK 345,JURONG EAST STREET 31,29,600345,C85274C000,E708205620B9F225,BLK 345 JURONG EAST STREET 31,True,True,JURONG EAST,YUHUA WEST,103.731219147651,1.34551209957725
POINT Z (103.810958960395 1.29270339832466 0),NTUC FAIRPRICE CO-OPERATIVE LTD,57,DAWSON ROAD,1,142057,CE04086K000,07108C84A74C8A7C,57 DAWSON ROAD,True,True,QUEENSTOWN,MARGARET DRIVE,103.810958960395,1.29270339832466
POINT Z (103.871996419079 1.37563500165175 0),SHENG SIONG SUPERMARKET PTE LTD,19,SERANGOON NORTH AVENUE 5,1/2,554913,CE04561V000,1D54775F11935375,19 SERANGOON NORTH AVENUE 5,False,True,SERANGOON,SERANGOON NORTH,103.871996419079,1.37563500165175
POINT Z (103.870389995935 1.32099294995032 0),NTUC FAIRPRICE CO-OPERATIVE LTD,71,KALLANG BAHRU,531,330071,CE05295K000,DBA039A142EA9994,71 KALLANG BAHRU,True,True,KALLANG,GEYLANG BAHRU,103.870389995935,1.32099294995032
POINT Z (103.80824240096 1.28645354374901 0),NTUC FAIRPRICE CO-OPERATIVE LTD,1,JALAN BUKIT MERAH,4500,150001,CE05487V000,B1D48DC85DA7AD12,1 JALAN BUKIT MERAH,True,True,BUKIT MERAH,ALEXANDRA HILL,103.80824240096,1.28645354374901
POINT Z (103.826940812301 1.29301786111443 0),NTUC FAIRPRICE CO-OPERATIVE LTD,491,RIVER VALLEY ROAD,14,248371,CE06044N000,ABBD171C982AD017,491 RIVER VALLEY ROAD,True,True,TANGLIN,CHATSWORTH,103.826940812301,1.29301786111443
POINT Z (103.843892126913 1.32042967863542 0),NTUC FAIRPRICE CO-OPERATIVE LTD,10,SINARAN DRIVE,47/48,307506,CE06L48L000,3FF83B006AE67CA8,10 SINARAN DRIVE,True,True,NOVENA,MOULMEIN,103.843892126913,1.32042967863542
POINT Z (103.848399235571 1.36924890739397 0),NTUC FAIRPRICE CO-OPERATIVE LTD,53,ANG MO KIO AVENUE 3,40,569933,CE06M36N000,48276C87BC805392,53 ANG MO KIO AVENUE 3,True,True,ANG MO KIO,ANG MO KIO TOWN CENTRE,103.848399235571,1.36924890739397
POINT Z (103.849434508531 1.31536303357228 0),NTUC FAIRPRICE CO-OPERATIVE LTD,43,CAMBRIDGE ROAD,15,210043,CE07320C000,82A43E54FB4A0EA8,43 CAMBRIDGE ROAD,True,True,KALLANG,KAMPONG JAVA,103.849434508531,1.31536303357228
POINT Z (103.87254179955 1.31265450087908 0),NTUC FAIRPRICE CO-OPERATIVE LTD,5,UPPER BOON KENG ROAD,5,380005,CE07D83B000,0E191075531C649A,5 UPPER BOON KENG ROAD,True,True,KALLANG,BOON KENG,103.87254179955,1.31265450087908
POINT Z (103.829298011427 1.28480734614992 0),NTUC FAIRPRICE CO-OPERATIVE LTD,18 /20,KIM TIAN ROAD,,169252,CE08015J000,FC426D36D4075C0D,18 /20 KIM TIAN ROAD,True,True,BUKIT MERAH,TIONG BAHRU STATION,103.829298011427,1.28480734614992
POINT Z (103.855670628839 1.32379607925067 0),NTUC FAIRPRICE CO-OPERATIVE LTD,80,LORONG LIMAU,191,320080,CE08H32N000,89940D98FCE45C3E,80 LORONG LIMAU,True,True,NOVENA,BALESTIER,103.855670628839,1.32379607925067
POINT Z (103.856487121487 1.31139349438913 0),NTUC FAIRPRICE CO-OPERATIVE LTD,180,KITCHENER ROAD,9/10,208539,CE09H10X000,1D075CE9A085D43E,180 KITCHENER ROAD,True,True,KALLANG,LAVENDER,103.856487121487,1.31139349438913
POINT Z (103.831425859726 1.2770770759001 0),NTUC FAIRPRICE CO-OPERATIVE LTD,150,SILAT AVENUE,44,160150,CE11F41C000,517F93EED9F80703,150 SILAT AVENUE,True,True,BUKIT MERAH,KAMPONG TIONG BAHRU,103.831425859726,1.2770770759001
POINT Z (103.850599507143 1.29827328917638 0),"JEWISH WELFARE BOARD, SINGAPORE, THE",24,WATERLOO STREET,1,187950,CE11H82X000,F23B8179A152C849,24 WATERLOO STREET,False,False,ROCHOR,VICTORIA,103.850599507143,1.29827328917638
POINT Z (103.832984361905 1.30585583497043 0),NTUC FAIRPRICE CO-OPERATIVE LTD,6,SCOTTS ROAD,,228209,CE11M39P000,77462D6E4FE0417D,6 SCOTTS ROAD,True,True,ORCHARD,BOULEVARD,103.832984361905,1.30585583497043
POINT Z (103.847082884002 1.37140920462192 0),NTUC FAIRPRICE CO-OPERATIVE LTD,712,ANG MO KIO AVENUE 6,4056,560712,CE11N90C000,F8BD1A0C6F5C2F81,712 ANG MO KIO AVENUE 6,True,True,ANG MO KIO,ANG MO KIO TOWN CENTRE,103.847082884002,1.37140920462192
POINT Z (103.843470740865 1.27458822422728 0),NTUC FAIRPRICE CO-OPERATIVE LTD,100,TRAS STREET,1,79027,CE12H50C000,A560CDE425D02E85,100 TRAS STREET,True,True,DOWNTOWN CORE,ANSON,103.843470740865,1.27458822422728
POINT Z (103.846476465683 1.3270848591504 0),NTUC FAIRPRICE CO-OPERATIVE LTD,20,AH HOOD ROAD,1,329984,CE13O90C000,6EC34C40B1C041F2,20 AH HOOD ROAD,True,True,NOVENA,BALESTIER,103.846476465683,1.3270848591504
POINT Z (103.872490556756 1.3921382839313 0),NTUC FAIRPRICE CO-OPERATIVE LTD,447A,JALAN KAYU,2,791447,CE13R25C000,9C98A7B3A62B0E57,447A JALAN KAYU,True,True,SENGKANG,FERNVALE,103.872490556756,1.3921382839313
POINT Z (103.857675501543 1.29487905112125 0),COLD STORAGE SINGAPORE (1983) PTE LTD,3,TEMASEK BOULEVARD,,38983,CE13Z03L000,707D40088A6F5927,3 TEMASEK BOULEVARD,False,True,DOWNTOWN CORE,MARINA CENTRE,103.857675501543,1.29487905112125
POINT Z (103.861311961994 1.30880609469533 0),NTUC FAIRPRICE CO-OPERATIVE LTD,808,FRENCH ROAD,1,200808,CE13Z98K000,B0046E59432ED08F,808 FRENCH ROAD,True,True,KALLANG,LAVENDER,103.861311961994,1.30880609469533
POINT Z (103.8443195557 1.27461794177448 0),COLD STORAGE SINGAPORE (1983) PTE LTD,16,ENGGOR STREET,,79717,CE14G71E000,68F945CC05F689F1,16 ENGGOR STREET,False,True,DOWNTOWN CORE,TANJONG PAGAR,103.8443195557,1.27461794177448
POINT Z (103.876067662182 1.39139305725169 0),NTUC FAIRPRICE CO-OPERATIVE LTD,33,SENGKANG WEST AVENUE,24,797653,CE14L50J000,63E9C290729A8097,33 SENGKANG WEST AVENUE,True,True,SENGKANG,FERNVALE,103.876067662182,1.39139305725169
POINT Z (103.892995500981 1.38621835288115 0),NTUC FAIRPRICE CO-OPERATIVE LTD,279,SENGKANG EAST AVENUE,6,540279,CE15695V000,3AFDC56CA244253F,279 SENGKANG EAST AVENUE,True,True,SENGKANG,COMPASSVALE,103.892995500981,1.38621835288115
POINT Z (103.813766343919 1.28668027234677 0),NTUC FAIRPRICE CO-OPERATIVE LTD,20,LENGKOK BAHRU,13,159053,CE15G35E000,367B3DC566C976CD,20 LENGKOK BAHRU,True,True,BUKIT MERAH,ALEXANDRA HILL,103.813766343919,1.28668027234677
POINT Z (103.856396513475 1.3708945610762 0),NTUC FAIRPRICE CO-OPERATIVE LTD,574,ANG MO KIO AVENUE 10,1847,560574,CE16K18V000,1E35E0C46465FD7B,574 ANG MO KIO AVENUE 10,True,True,ANG MO KIO,CHENG SAN,103.856396513475,1.3708945610762
POINT Z (103.835445360583 1.36321586107786 0),NTUC FAIRPRICE CO-OPERATIVE LTD,410A,SIN MING AVENUE,2,571410,CE17E43B000,A8542902A6D01A49,410A SIN MING AVENUE,True,True,BISHAN,UPPER THOMSON,103.835445360583,1.36321586107786
POINT Z (103.86390532629 1.31909344185792 0),NTUC FAIRPRICE CO-OPERATIVE LTD,30,BENDEMEER ROAD,871,330030,CE17K55B000,A278D9A9C68882B7,30 BENDEMEER ROAD,True,True,KALLANG,BENDEMEER,103.86390532629,1.31909344185792
POINT Z (103.848993319083 1.33889072011391 0),NTUC FAIRPRICE CO-OPERATIVE LTD,95,LORONG 4 TOA PAYOH,68,310095,CE17L02A000,3FAE712FCD9D09BB,95 LORONG 4 TOA PAYOH,True,True,TOA PAYOH,BRADDELL,103.848993319083,1.33889072011391
POINT Z (103.857675501543 1.29487905112125 0),SF (313) PTE. LTD.,3,TEMASEK BOULEVARD,616,38983,CE17P14L000,707D4008373C1FB0,3 TEMASEK BOULEVARD,False,False,DOWNTOWN CORE,MARINA CENTRE,103.857675501543,1.29487905112125
POINT Z (103.827081283638 1.28807688301773 0),YOUR GROCER PRIVATE LIMITED,34,JALAN BUKIT HO SWEE,870,160034,CE18R71X000,2185484A7816B459,34 JALAN BUKIT HO SWEE,False,False,BUKIT MERAH,BUKIT HO SWEE,103.827081283638,1.28807688301773
POINT Z (103.853349301911 1.28022768611886 0),COLD STORAGE SINGAPORE (1983) PTE LTD,8A,MARINA BOULEVARD,44-50,18984,CE18T11J000,64A2013F18D25FEE,8A MARINA BOULEVARD,False,True,DOWNTOWN CORE,CENTRAL SUBZONE,103.853349301911,1.28022768611886
POINT Z (103.856487121487 1.31139349438913 0),PAN PACIFIC INTERNATIONAL HOLDINGS PTE. LTD.,180,KITCHENER ROAD,6,208539,CE18T88K000,1D075CE9DF75DFC9,180 KITCHENER ROAD,False,False,KALLANG,LAVENDER,103.856487121487,1.31139349438913
POINT Z (103.886672786663 1.32176644586798 0),NTUC FAIRPRICE CO-OPERATIVE LTD,114,ALJUNIED AVENUE 2,75,380114,E02034P000,618DDF0CC172A358,114 ALJUNIED AVENUE 2,True,True,GEYLANG,ALJUNIED,103.886672786663,1.32176644586798
POINT Z (103.931640028654 1.32594069682932 0),NTUC FAIRPRICE CO-OPERATIVE LTD,212,BEDOK NORTH STREET 1,147,460212,E02035N000,FBB76B059C1D994A,212 BEDOK NORTH STREET 1,True,True,BEDOK,BEDOK NORTH,103.931640028654,1.32594069682932
POINT Z (103.873035798474 1.36979940182639 0),NTUC FAIRPRICE CO-OPERATIVE LTD,152B,SERANGOON NORTH AVENUE 1,384,552152,E02039E000,2ED98545865DE1C7,152B SERANGOON NORTH AVENUE 1,True,True,SERANGOON,SERANGOON GARDEN,103.873035798474,1.36979940182639
POINT Z (103.907112664975 1.30141955705642 0),NTUC FAIRPRICE CO-OPERATIVE LTD,6,MARINE PARADE CENTRAL,,449411,E02096K000,B5259E55782463A5,6 MARINE PARADE CENTRAL,True,True,MARINE PARADE,MARINE PARADE,103.907112664975,1.30141955705642
POINT Z (103.92523453825 1.31230752821693 0),NTUC FAIRPRICE CO-OPERATIVE LTD,934,EAST COAST ROAD,,459125,E83157K000,AC99C8F975864BA2,934 EAST COAST ROAD,True,True,BEDOK,FRANKEL,103.92523453825,1.31230752821693
POINT Z (103.885349909653 1.32855656927862 0),NTUC FAIRPRICE CO-OPERATIVE LTD,77,CIRCUIT ROAD,464/6,370077,E95315V000,D8DDD1364FF2F745,77 CIRCUIT ROAD,True,True,GEYLANG,MACPHERSON,103.885349909653,1.32855656927862
POINT Z (103.907988815995 1.30836165161607 0),NTUC FAIRPRICE CO-OPERATIVE LTD,239/255,EAST COAST ROAD,,428932,E98161V000,96F10AFEB22C27BF,239/255 EAST COAST ROAD,True,True,MARINE PARADE,KATONG,103.907988815995,1.30836165161607
POINT Z (103.712429317152 1.34634819293844 0),NTUC FAIRPRICE CO-OPERATIVE LTD,221,BOON LAY PLACE,200,640221,J02013A000,C5D382FA8A46B194,221 BOON LAY PLACE,True,True,JURONG WEST,BOON LAY PLACE,103.712429317152,1.34634819293844
POINT Z (103.744950388654 1.38506836300634 0),NTUC FAIRPRICE CO-OPERATIVE LTD,21,CHOA CHU KANG AVENUE 4,3,689812,J96145K000,4D9DA5784F87535E,21 CHOA CHU KANG AVENUE 4,True,True,CHOA CHU KANG,CHOA CHU KANG CENTRAL,103.744950388654,1.38506836300634
POINT Z (103.945344294717 1.34528144162057 0),NTUC FAIRPRICE CO-OPERATIVE LTD,138,TAMPINES STREET 11,136,521138,NE04047K000,6558AF793E6021B8,138 TAMPINES STREET 11,True,True,TAMPINES,TAMPINES EAST,103.945344294717,1.34528144162057
POINT Z (103.912976438987 1.394184094795 0),NTUC FAIRPRICE CO-OPERATIVE LTD,168,PUNGGOL FIELD,1,820168,NE04107V000,94829DCFB889E7AD,168 PUNGGOL FIELD,True,True,PUNGGOL,PUNGGOL FIELD,103.912976438987,1.394184094795
POINT Z (103.934315234757 1.3554217626792 0),NTUC FAIRPRICE CO-OPERATIVE LTD,866A,TAMPINES STREET 83,1,521866,NE04114A000,EFDB60DE518B215C,866A TAMPINES STREET 83,True,True,TAMPINES,TAMPINES WEST,103.934315234757,1.3554217626792
POINT Z (103.953599087705 1.37714073427956 0),NTUC FAIRPRICE CO-OPERATIVE LTD,1,PASIR RIS CLOSE,127,519599,NE08058P000,2D3F74CA49205874,1 PASIR RIS CLOSE,True,True,PASIR RIS,PASIR RIS PARK,103.953599087705,1.37714073427956
POINT Z (103.893607840929 1.38233698021703 0),NTUC FAIRPRICE CO-OPERATIVE LTD,BLK 277C,COMPASSVALE LINK,13,543277,NE08150C000,6D3BDFC26E5A4AB2,BLK 277C COMPASSVALE LINK,True,True,SENGKANG,COMPASSVALE,103.893607840929,1.38233698021703
POINT Z (103.94501945797 1.35431556438279 0),COLD STORAGE SINGAPORE (1983) PTE LTD,10,TAMPINES CENTRAL 1,1/2,529536,NE09027A000,90D4D9CDDFD52FAA,10 TAMPINES CENTRAL 1,False,True,TAMPINES,TAMPINES EAST,103.94501945797,1.35431556438279
POINT Z (103.894165384101 1.37177995742086 0),NTUC FAIRPRICE CO-OPERATIVE LTD,100,HOUGANG AVENUE 10,1,538767,NE09263B000,57E0B3B56BFE85B9,100 HOUGANG AVENUE 10,True,True,HOUGANG,HOUGANG CENTRAL,103.894165384101,1.37177995742086
POINT Z (103.865041855148 1.36516070959148 0),NTUC FAIRPRICE CO-OPERATIVE LTD,1,MAJU AVENUE,11/14,556679,NE10310X000,8ED32C743B83D1CB,1 MAJU AVENUE,True,True,SERANGOON,SERANGOON GARDEN,103.865041855148,1.36516070959148
POINT Z (103.908665607626 1.40461002768949 0),NTUC FAIRPRICE CO-OPERATIVE LTD,612,PUNGGOL DRIVE,6,820612,NE12B79A000,EDD3F8A190365803,612 PUNGGOL DRIVE,True,True,PUNGGOL,WATERWAY EAST,103.908665607626,1.40461002768949
POINT Z (103.903712868236 1.3774300635181 0),NTUC FAIRPRICE CO-OPERATIVE LTD,476,UPPER SERANGOON VIEW,18,530476,NE15467C000,5D8CF73D82E2D2D3,476 UPPER SERANGOON VIEW,True,True,HOUGANG,KANGKAR,103.903712868236,1.3774300635181
POINT Z (103.939683594446 1.35349616014431 0),NTUC FAIRPRICE CO-OPERATIVE LTD,51,TAMPINES AVENUE 4,1,528523,NE16640E000,879B533DDE7D971B,51 TAMPINES AVENUE 4,True,True,TAMPINES,TAMPINES WEST,103.939683594446,1.35349616014431
POINT Z (103.929363838846 1.3512641069979 0),U STARS SUPERMARKET PTE. LTD.,878C,TAMPINES AVENUE 8,65,523878,NE17390X000,7B4637BC59034D55,878C TAMPINES AVENUE 8,False,False,TAMPINES,TAMPINES WEST,103.929363838846,1.3512641069979
POINT Z (103.931623638518 1.35524289885319 0),NTUC FAIRPRICE CO-OPERATIVE LTD,872C,TAMPINES STREET 86,1,523872,NE17563L000,6FAEE68236789B6D,872C TAMPINES STREET 86,True,True,TAMPINES,TAMPINES WEST,103.931623638518,1.35524289885319
POINT Z (103.913195747038 1.40287845138627 0),NTUC FAIRPRICE CO-OPERATIVE LTD,681,PUNGGOL DRIVE,1,820681,NE18169P000,CFB223ABC56F4731,681 PUNGGOL DRIVE,True,True,PUNGGOL,WATERWAY EAST,103.913195747038,1.40287845138627
POINT Z (103.78661961568 1.43507789397689 0),NTUC FAIRPRICE CO-OPERATIVE LTD,900,SOUTH WOODLANDS DRIVE,1,730900,NW04127A000,6E838EA78CB67267,900 SOUTH WOODLANDS DRIVE,True,True,WOODLANDS,WOODLANDS REGIONAL CENTRE,103.78661961568,1.43507789397689
POINT Z (103.819543348008 1.45384518800838 0),NTUC FAIRPRICE CO-OPERATIVE LTD,511,CANBERRA ROAD,3,750511,NW06546V000,EA43756B63AE5BD2,511 CANBERRA ROAD,True,True,SEMBAWANG,ADMIRALTY,103.819543348008,1.45384518800838
POINT Z (103.818641141782 1.44956647612199 0),NTUC FAIRPRICE CO-OPERATIVE LTD,355,SEMBAWANG WAY,1,750355,NW07277P000,871279A45CEE1E93,355 SEMBAWANG WAY,True,True,SEMBAWANG,SEMBAWANG CENTRAL,103.818641141782,1.44956647612199
POINT Z (103.79254748678 1.30918211194726 0),NTUC FAIRPRICE CO-OPERATIVE LTD,36,HOLLAND DRIVE,3,270036,NW08477X000,4631ECA22376D5D7,36 HOLLAND DRIVE,True,True,QUEENSTOWN,HOLLAND DRIVE,103.79254748678,1.30918211194726
POINT Z (103.760041592308 1.38060511575374 0),SHENG SIONG SUPERMARKET PTE LTD,1,WOODLANDS ROAD,7,677899,NW11767E000,73E590BC99EA9E8D,1 WOODLANDS ROAD,False,True,CHOA CHU KANG,TECK WHYE,103.760041592308,1.38060511575374
POINT Z (103.790454085829 1.43106395014876 0),NTUC FAIRPRICE CO-OPERATIVE LTD,570B,WOODLANDS AVENUE 1,6,732570,NW13K05E000,6DC01E96DE9196E5,570B WOODLANDS AVENUE 1,True,True,WOODLANDS,WOODLANDS SOUTH,103.790454085829,1.43106395014876
POINT Z (103.762741183479 1.37834971351323 0),NTUC FAIRPRICE CO-OPERATIVE LTD,17,PETIR ROAD,67,678278,NW17097K000,0F6D2805D151B799,17 PETIR ROAD,True,True,BUKIT PANJANG,JELEBU,103.762741183479,1.37834971351323
POINT Z (103.795682402301 1.45334362223108 0),CUTECH GREEN VENTURES PTE. LTD.,10,WOODLANDS INDUSTRIAL PARK E1,,757733,NW17699N000,5DC9CF3CF21857D9,10 WOODLANDS INDUSTRIAL PARK E1,False,False,WOODLANDS,SENOKO WEST,103.795682402301,1.45334362223108
POINT Z (103.836142036927 1.42799995739162 0),NTUC FAIRPRICE CO-OPERATIVE LTD,1,NORTHPOINT DRIVE,103,768019,NW17872B000,A507A2041C1E0090,1 NORTHPOINT DRIVE,True,True,YISHUN,YISHUN CENTRAL,103.836142036927,1.42799995739162
POINT Z (103.800701205041 1.43991607901426 0),NTUC FAIRPRICE CO-OPERATIVE LTD,676,WOODLANDS DRIVE 71,2,730676,NW17908L000,80FFC586D66A480E,676 WOODLANDS DRIVE 71,True,True,WOODLANDS,WOODLANDS EAST,103.800701205041,1.43991607901426
POINT Z (103.784598109774 1.3084928850612 0),NTUC FAIRPRICE CO-OPERATIVE LTD,29A,GHIM MOH LINK,1,271029,NW18091N000,CB074CE9A66B40A9,29A GHIM MOH LINK,True,True,QUEENSTOWN,GHIM MOH,103.784598109774,1.3084928850612
POINT Z (103.841236466066 1.41799925737436 0),NTUC FAIRPRICE CO-OPERATIVE LTD,598,YISHUN RING ROAD,1,768698,NW18192E000,43A0261E776070BB,598 YISHUN RING ROAD,True,True,YISHUN,YISHUN SOUTH,103.841236466066,1.41799925737436
POINT Z (103.798507625993 1.43109807068463 0),SHENG SIONG SUPERMARKET PTE LTD,573,WOODLANDS DRIVE 16,1,730573,NW18778K000,34B968593E51F43C,573 WOODLANDS DRIVE 16,False,True,WOODLANDS,WOODLANDS SOUTH,103.798507625993,1.43109807068463
POINT Z (103.849691986415 1.34888843913817 0),NTUC FAIRPRICE CO-OPERATIVE LTD,510,BISHAN STREET 13,520,570510,S02021B000,D6271526316691C6,510 BISHAN STREET 13,True,True,BISHAN,BISHAN EAST,103.849691986415,1.34888843913817
POINT Z (103.848477626073 1.35023942729665 0),NTUC FAIRPRICE CO-OPERATIVE LTD,9,BISHAN PLACE,20,579837,S02023V000,FA9FA5ABA05A847E,9 BISHAN PLACE,True,True,BISHAN,BISHAN EAST,103.848477626073,1.35023942729665
POINT Z (103.893661619219 1.37231186456868 0),NTUC FAIRPRICE CO-OPERATIVE LTD,90,HOUGANG AVENUE 10,7,538766,S02026N000,50B8953758D1012C,90 HOUGANG AVENUE 10,True,True,HOUGANG,HOUGANG CENTRAL,103.893661619219,1.37231186456868
POINT Z (103.88574886332 1.37361830003654 0),NTUC FAIRPRICE CO-OPERATIVE LTD,682,HOUGANG AVENUE 4,310,530682,S02027L000,9AF391E828F682EA,682 HOUGANG AVENUE 4,True,True,HOUGANG,HOUGANG WEST,103.88574886332,1.37361830003654
POINT Z (103.884038461279 1.35757558065219 0),NTUC FAIRPRICE CO-OPERATIVE LTD,202,HOUGANG STREET 21,0,530202,S02028K000,C2F5E50531DA5597,202 HOUGANG STREET 21,True,True,HOUGANG,LORONG AH SOO,103.884038461279,1.35757558065219
POINT Z (103.879450260083 1.3756672808109 0),NTUC FAIRPRICE CO-OPERATIVE LTD,1,HOUGANG STREET 91,1,538692,S02029J000,F23F4D1905C24B08,1 HOUGANG STREET 91,True,True,HOUGANG,TRAFALGAR,103.879450260083,1.3756672808109
POINT Z (103.949715696944 1.37244980890777 0),NTUC FAIRPRICE CO-OPERATIVE LTD,1,PASIR RIS CENTRAL STREET 3,10,518457,S02034N000,59D794C1E51C56C4,1 PASIR RIS CENTRAL STREET 3,True,True,PASIR RIS,PASIR RIS CENTRAL,103.949715696944,1.37244980890777
POINT Z (103.944387982831 1.35267232042901 0),NTUC FAIRPRICE CO-OPERATIVE LTD,4,TAMPINES CENTRAL 5,12,529510,S02039C000,CF4061E3C2BB8F61,4 TAMPINES CENTRAL 5,True,True,TAMPINES,TAMPINES EAST,103.944387982831,1.35267232042901
POINT Z (103.921774737841 1.33740471321143 0),NTUC FAIRPRICE CO-OPERATIVE LTD,745,BEDOK RESERVOIR ROAD,3015,470745,S02049A000,06CCD5AEC49398A2,745 BEDOK RESERVOIR ROAD,True,True,BEDOK,BEDOK RESERVOIR,103.921774737841,1.33740471321143
POINT Z (103.922102964585 1.3236517309902 0),SONG FISH DEALER PTE LTD,750,CHAI CHEE ROAD,9,469000,SE16670X000,939FBC8A6B9FFEE4,750 CHAI CHEE ROAD,False,False,BEDOK,KEMBANGAN,103.922102964585,1.3236517309902
POINT Z (103.83983039077 1.41517633772651 0),U STARS PTE. LTD.,507,YISHUN AVENUE 4,9,760507,NW17212X000,28C4982939CE3342,507 YISHUN AVENUE 4,False,False,YISHUN,LOWER SELETAR,103.83983039077,1.41517633772651
POINT Z (103.798021747973 1.30203802909961 0),SHENG SIONG SUPERMARKET PTE LTD,88,TANGLIN HALT ROAD,10,141088,CE07783P000,EBA347CA8E4DF407,88 TANGLIN HALT ROAD,False,True,QUEENSTOWN,TANGLIN HALT,103.798021747973,1.30203802909961
POINT Z (103.922102964585 1.3236517309902 0),L M MEAT PTE. LTD.,750,CHAI CHEE ROAD,10,469000,SE16607K000,939FBC8A94020BB3,750 CHAI CHEE ROAD,False,False,BEDOK,KEMBANGAN,103.922102964585,1.3236517309902
POINT Z (103.964617780128 1.36700053512078 0),SHENG SIONG SUPERMARKET PTE LTD,258,PASIR RIS STREET 21,10,510258,NE17023N000,D471C18D5C9A605B,258 PASIR RIS STREET 21,False,True,PASIR RIS,PASIR RIS DRIVE,103.964617780128,1.36700053512078
POINT Z (103.751896006132 1.36393821477866 0),OH BENG GUAN,395A,BUKIT BATOK WEST AVENUE 5,10,651395,SW06322N000,3F2FB67F7AEF8F7B,395A BUKIT BATOK WEST AVENUE 5,False,False,BUKIT BATOK,GOMBAK,103.751896006132,1.36393821477866
POINT Z (103.844697090786 1.28499883856532 0),IROHA INTERNATIONAL PTE. LTD.,133,NEW BRIDGE ROAD,11,59413,CE17F56J000,FC1B4354AC88A2B3,133 NEW BRIDGE ROAD,False,False,OUTRAM,CHINA SQUARE,103.844697090786,1.28499883856532
POINT Z (103.847677043508 1.36462540011122 0),COLD STORAGE SINGAPORE (1983) PTE LTD,316B,ANG MO KIO STREET 31,11,563316,CE05096V000,4B8C965EBF10F6E4,316B ANG MO KIO STREET 31,False,True,ANG MO KIO,TOWNSVILLE,103.847677043508,1.36462540011122
POINT Z (103.869135979297 1.38739537368097 0),COLD STORAGE SINGAPORE (1983) PTE LTD,1,SELETAR ROAD,11,807011,CE11P32L000,E1D1A8CFFCFF6461,1 SELETAR ROAD,False,True,SERANGOON,SELETAR HILLS,103.869135979297,1.38739537368097
POINT Z (103.905014934935 1.30523472024853 0),COLD STORAGE SINGAPORE (1983) PTE LTD,112,EAST COAST ROAD,12,428802,SE11930L000,6ADEFEBC99EB995D,112 EAST COAST ROAD,False,True,MARINE PARADE,MARINE PARADE,103.905014934935,1.30523472024853
POINT Z (103.809526142547 1.30417511894087 0),CULINA PTE LTD,8,DEMPSEY ROAD,13,247696,CE07411A000,6A804D86ACCD9544,8 DEMPSEY ROAD,False,False,TANGLIN,RIDOUT,103.809526142547,1.30417511894087
POINT Z (103.8509778648 1.33362232032979 0),COLD STORAGE SINGAPORE (1983) PTE LTD,181,LORONG 4 TOA PAYOH,602,310181,S02057A000,AA62F951DBDE4FDC,181 LORONG 4 TOA PAYOH,False,True,TOA PAYOH,TOA PAYOH CENTRAL,103.8509778648,1.33362232032979
POINT Z (103.818673599932 1.28692006435587 0),COLD STORAGE SINGAPORE (1983) PTE LTD,86,REDHILL CLOSE,610,150086,W72014K000,16BAE9E78C33BF64,86 REDHILL CLOSE,False,True,BUKIT MERAH,REDHILL,103.818673599932,1.28692006435587
POINT Z (103.931068836577 1.32463573239521 0),SHENG SIONG SUPERMARKET PTE LTD,209,NEW UPPER CHANGI ROAD,631,460209,SE04069A000,7C2679FDD46A03D2,209 NEW UPPER CHANGI ROAD,False,True,BEDOK,BEDOK NORTH,103.931068836577,1.32463573239521
POINT Z (103.801293114431 1.43998365427584 0),PRIME SUPERMARKET LIMITED,678,WOODLANDS AVENUE 6,716,730678,B02027A000,A3E9F52EA20A4AA4,678 WOODLANDS AVENUE 6,False,True,WOODLANDS,WOODLANDS EAST,103.801293114431,1.43998365427584
POINT Z (103.719496485079 1.35151847178612 0),NG TOH TET,442,JURONG WEST AVENUE 1,756,640442,J02016P000,51E44E114D24A291,442 JURONG WEST AVENUE 1,False,False,JURONG WEST,HONG KAH,103.719496485079,1.35151847178612
POINT Z (103.863387984978 1.33545352733956 0),HAO MART PTE. LTD.,120,POTONG PASIR AVENUE 1,812,350120,E85090E000,44AA20183AB0C771,120 POTONG PASIR AVENUE 1,False,True,TOA PAYOH,POTONG PASIR,103.863387984978,1.33545352733956
POINT Z (103.914145078086 1.33205094619271 0),CHUA & NG PTE. LTD.,632,BEDOK RESERVOIR ROAD,824,470632,NE08405X000,F5F55F22EF14EA1C,632 BEDOK RESERVOIR ROAD,False,False,BEDOK,KAKI BUKIT,103.914145078086,1.33205094619271
POINT Z (103.717704811504 1.34995541023414 0),LOCH GROCER PTE. LTD.,503,JURONG WEST AVENUE 1,847,640503,SW09133X000,EEC186165D0A8166,503 JURONG WEST AVENUE 1,False,False,JURONG WEST,HONG KAH,103.717704811504,1.34995541023414
POINT Z (103.788214538525 1.30684882667818 0),TANESEI TRADING PTE. LTD.,1,VISTA EXCHANGE GREEN,28,138617,SW12J94X000,A0FE8279FB2C316D,1 VISTA EXCHANGE GREEN,False,False,QUEENSTOWN,ONE NORTH,103.788214538525,1.30684882667818
POINT Z (103.726722841969 1.32048426082957 0),ARCHANA SUPERMARKET PTE. LTD.,1,JALAN PAPAN,29,619392,SW16856V000,1E09589ACA5444FD,1 JALAN PAPAN,False,False,JURONG EAST,JURONG RIVER,103.726722841969,1.32048426082957
POINT Z (103.81411090726 1.45000861248809 0),COLD STORAGE SINGAPORE (1983) PTE LTD,468B,ADMIRALTY DRIVE,29,752468,NW09437C000,93284ECF02D2C362,468B ADMIRALTY DRIVE,False,True,SEMBAWANG,SEMBAWANG NORTH,103.81411090726,1.45000861248809
POINT Z (103.776250537642 1.34239284479656 0),COLD STORAGE SINGAPORE (1983) PTE LTD,144,UPPER BUKIT TIMAH ROAD,1,588177,C02048E000,85C2936DDD270371,144 UPPER BUKIT TIMAH ROAD,False,True,BUKIT TIMAH,ANAK BUKIT,103.776250537642,1.34239284479656
POINT Z (103.783709152299 1.33667572858824 0),COLD STORAGE SINGAPORE (1983) PTE LTD,896,DUNEARN ROAD,1,589472,NW15295X000,F6C9A8232851A10E,896 DUNEARN ROAD,False,True,BUKIT TIMAH,SWISS CLUB,103.783709152299,1.33667572858824
POINT Z (103.742586015051 1.33402529468935 0),ISETAN (SINGAPORE) LIMITED?,3,GATEWAY DRIVE,1,608532,SW13W88P000,52762EE4E11C1136,3 GATEWAY DRIVE,False,False,JURONG EAST,JURONG GATEWAY,103.742586015051,1.33402529468935
POINT Z (103.697020082225 1.34159108250934 0),COLD STORAGE SINGAPORE (1983) PTE LTD,638,JURONG WEST STREET 61,1,640638,SW05008N000,9D4B00D78EE6C414,638 JURONG WEST STREET 61,False,True,JURONG WEST,JURONG WEST CENTRAL,103.697020082225,1.34159108250934
POINT Z (103.698292007732 1.34872643268225 0),PRIME SUPERMARKET LIMITED,763,JURONG WEST STREET 75,1,640763,J94081B000,42F0880F0319FFF0,763 JURONG WEST STREET 75,False,True,JURONG WEST,YUNNAN,103.698292007732,1.34872643268225
POINT Z (103.743698115504 1.34737179952411 0),SHENG SIONG SUPERMARKET PTE LTD,154A,BUKIT BATOK WEST AVENUE 8,1,651154,C02033V000,34993015030C6436,154A BUKIT BATOK WEST AVENUE 8,False,True,BUKIT BATOK,BUKIT BATOK WEST,103.743698115504,1.34737179952411
POINT Z (103.749021982726 1.3501891589254 0),COLD STORAGE SINGAPORE (1983) PTE LTD,1,BUKIT BATOK CENTRAL LINK,1,658713,C02046K000,3FAA9C0F7EBAE4EB,1 BUKIT BATOK CENTRAL LINK,False,True,BUKIT BATOK,BUKIT BATOK CENTRAL,103.749021982726,1.3501891589254
POINT Z (103.943784815991 1.3523611297845 0),TANESEI RETAILING PTE. LTD.,2,TAMPINES CENTRAL 5,6,529509,NE18406E000,7B55F502FCBD4F10,2 TAMPINES CENTRAL 5,False,False,TAMPINES,TAMPINES EAST,103.943784815991,1.3523611297845
POINT Z (103.845155396186 1.27672493204774 0),LITTLE FARMS PTE. LTD.,7,WALLICH STREET,6,78884,CE16M43E000,5C0DA5EB545D290B,7 WALLICH STREET,False,False,DOWNTOWN CORE,TANJONG PAGAR,103.845155396186,1.27672493204774
POINT Z (103.943784815991 1.3523611297845 0),MAHOTA FOOD PTE. LTD.,2,TAMPINES CENTRAL 5,7,529509,S02041P000,7B55F5026E1D850C,2 TAMPINES CENTRAL 5,False,False,TAMPINES,TAMPINES EAST,103.943784815991,1.3523611297845
POINT Z (103.943784815991 1.3523611297845 0),SONG FISH DEALER PTE LTD,2,TAMPINES CENTRAL 5,8,529509,NE18339P000,7B55F5021DC385BD,2 TAMPINES CENTRAL 5,False,False,TAMPINES,TAMPINES EAST,103.943784815991,1.3523611297845
POINT Z (103.786049389035 1.30811886968959 0),SHENG SIONG SUPERMARKET PTE LTD,25,GHIM MOH LINK,11,270025,SW12M64L000,AF844D2DC3D279A9,25 GHIM MOH LINK,False,True,QUEENSTOWN,GHIM MOH,103.786049389035,1.30811886968959
POINT Z (103.856411982148 1.3778920308286 0),SHENG SIONG SUPERMARKET PTE LTD,2,ANG MO KIO DRIVE,12,567720,CE12J32X000,0EE1D35E42FAF59A,2 ANG MO KIO DRIVE,False,True,ANG MO KIO,YIO CHU KANG EAST,103.856411982148,1.3778920308286
POINT Z (103.887857189653 1.35530903339479 0),ISYMI PTE LTD,183,JALAN PELIKAT,12,537643,NE18066E000,13FEA605430E11A7,183 JALAN PELIKAT,False,False,HOUGANG,LORONG AH SOO,103.887857189653,1.35530903339479
POINT Z (103.894480527876 1.31469214115978 0),THE SEAFOOD MARKET PLACE (BY SONG FISH) PTE. LTD.,11,TANJONG KATONG ROAD,15,437157,SE18169X000,5373FE2C2542A82A,11 TANJONG KATONG ROAD,False,False,GEYLANG,GEYLANG EAST,103.894480527876,1.31469214115978
POINT Z (103.753536116977 1.33832657868868 0),TOH GUAN MINI MART PTE LTD,19,TOH GUAN ROAD EAST,65,608568,SW06002X000,7D560DE5FBC479E4,19 TOH GUAN ROAD EAST,False,False,CLEMENTI,TOH TUCK,103.753536116977,1.33832657868868
POINT Z (103.695248113879 1.33314577537318 0),KADER HASNA MARICAN,17,KIAN TECK LANE,65,627851,J03027B000,48D694F77BDDF3B8,17 KIAN TECK LANE,False,False,JURONG WEST,KIAN TECK,103.695248113879,1.33314577537318
POINT Z (103.934734229515 1.3206250589085 0),"TANG KER AN, TIMOTHY",18,BEDOK SOUTH ROAD,67,460018,SE17401C000,8F06CB553CAC00B7,18 BEDOK SOUTH ROAD,False,False,BEDOK,BEDOK SOUTH,103.934734229515,1.3206250589085
POINT Z (103.772937487064 1.37904775569569 0),COLD STORAGE SINGAPORE (1983) PTE LTD,256,BANGKIT ROAD,69,670256,B02060V000,5FA77C2D92DF2C69,256 BANGKIT ROAD,False,True,BUKIT PANJANG,BANGKIT,103.772937487064,1.37904775569569
POINT Z (103.804476738376 1.45464654784747 0),MM SUNDRY SHOP PTE.LTD.,27,WOODLANDS SECTOR 1,70,738252,NW07726J000,0C9F58A0D266482F,27 WOODLANDS SECTOR 1,False,False,SEMBAWANG,SENOKO SOUTH,103.804476738376,1.45464654784747
POINT Z (103.852658565645 1.28076944309971 0),AL MARCHE PTE LTD,2,MARINA BOULEVARD,5,18987,CE09874X000,0B5E8C0719CDF4FB,2 MARINA BOULEVARD,False,False,DOWNTOWN CORE,CENTRAL SUBZONE,103.852658565645,1.28076944309971
POINT Z (103.795692359115 1.33081740177866 0),COLD STORAGE SINGAPORE (1983) PTE LTD,1,FIFTH AVENUE,5,268802,C02024A000,A367F6F11F9F5E4F,1 FIFTH AVENUE,False,True,BUKIT TIMAH,CORONATION ROAD,103.795692359115,1.33081740177866
POINT Z (103.795350440968 1.31025542171459 0),COLD STORAGE SINGAPORE (1983) PTE LTD,211,HOLLAND AVENUE,5,278967,W02066L000,41A9A338E183E6E0,211 HOLLAND AVENUE,False,True,BUKIT TIMAH,LEEDON PARK,103.795350440968,1.31025542171459
POINT Z (103.911185988113 1.31212247677014 0),THE ALASKA GUYS PTE. LTD.,201,TELOK KURAU ROAD,5,423910,SE12D97J000,242BE46EFDCB9A13,201 TELOK KURAU ROAD,False,False,BEDOK,FRANKEL,103.911185988113,1.31212247677014
POINT Z (103.800977588529 1.44053814947729 0),COLD STORAGE SINGAPORE (1983) PTE LTD,70,WOODLANDS AVENUE 7,5,738344,NW08020K000,01A592466FEE8456,70 WOODLANDS AVENUE 7,False,True,WOODLANDS,WOODLANDS EAST,103.800977588529,1.44053814947729
POINT Z (103.835776497586 1.42969848150358 0),SONG FISH DEALER PTE LTD,930,YISHUN AVENUE 2,5,769098,NW17310P000,CABE56048480C346,930 YISHUN AVENUE 2,False,False,YISHUN,YISHUN CENTRAL,103.835776497586,1.42969848150358
POINT Z (103.769575387874 1.3882402152635 0),SHENG SIONG SUPERMARKET PTE LTD,547,SEGAR ROAD,6,670547,NW15186C000,FFADBE6EC613A39A,547 SEGAR ROAD,False,True,BUKIT PANJANG,SAUJANA,103.769575387874,1.3882402152635
POINT Z (103.881698809438 1.39779874004409 0),SHENG SIONG SUPERMARKET PTE LTD,473,FERNVALE STREET,6,790473,CE16913J000,D928E5F65E28DEF6,473 FERNVALE STREET,False,True,SENGKANG,FERNVALE,103.881698809438,1.39779874004409
POINT Z (103.91053692695 1.40053114255394 0),COLD STORAGE SINGAPORE (1983) PTE LTD,622D,PUNGGOL CENTRAL,6,824622,NE13M11K000,BF0F0FB5EA7C572A,622D PUNGGOL CENTRAL,False,True,PUNGGOL,WATERWAY EAST,103.91053692695,1.40053114255394
POINT Z (103.825595755974 1.28263437748971 0),COLD STORAGE SINGAPORE (1983) PTE LTD,26,JALAN MEMBINA,7,161026,CE11C49E000,4B9FC10E8288D387,26 JALAN MEMBINA,False,True,BUKIT MERAH,TIONG BAHRU STATION,103.825595755974,1.28263437748971
POINT Z (103.76417292134 1.36267450256161 0),COLD STORAGE SINGAPORE (1983) PTE LTD,4,HILLVIEW RISE,7,667979,SW14542A000,BC39CA3A2186F0FF,4 HILLVIEW RISE,False,True,BUKIT BATOK,HILLVIEW,103.76417292134,1.36267450256161
POINT Z (103.894289394701 1.3165446779962 0),COLD STORAGE SINGAPORE (1983) PTE LTD,845,GEYLANG ROAD,8,400845,E02048C000,431ADABEDA19B75B,845 GEYLANG ROAD,False,True,GEYLANG,GEYLANG EAST,103.894289394701,1.3165446779962
POINT Z (103.905014934935 1.30523472024853 0),TANESEI RETAILING PTE. LTD.,112,EAST COAST ROAD,9,428802,SE11A69V000,6ADEFEBCFB907C4C,112 EAST COAST ROAD,False,False,MARINE PARADE,MARINE PARADE,103.905014934935,1.30523472024853
POINT Z (103.771029612234 1.38400581939075 0),SHENG SIONG SUPERMARKET PTE LTD,446,FAJAR ROAD,1,670446,NW17421C000,1635D8713E8BB1C0,446 FAJAR ROAD,False,True,BUKIT PANJANG,FAJAR,103.771029612234,1.38400581939075
POINT Z (103.73893180394 1.37805613765446 0),COLD STORAGE SINGAPORE (1983) PTE LTD,475,CHOA CHU KANG AVENUE 3,1,680475,J02010E000,B55F09E3E2D3C583,475 CHOA CHU KANG AVENUE 3,False,True,CHOA CHU KANG,PENG SIANG,103.73893180394,1.37805613765446
POINT Z (103.746160084444 1.37405796748332 0),U STARS PTE. LTD.,810,CHOA CHU KANG AVENUE 7,1,680810,SW16D52V000,8B8C2E118EBB3598,810 CHOA CHU KANG AVENUE 7,False,False,CHOA CHU KANG,KEAT HONG,103.746160084444,1.37405796748332
POINT Z (103.801057153449 1.44834154204666 0),FORTUNE SUPERMARKET PTE. LTD.,780,WOODLANDS CRESCENT,1,730780,NW15220L000,6C0F13C3F87F6654,780 WOODLANDS CRESCENT,False,False,WOODLANDS,WOODLANDS EAST,103.801057153449,1.44834154204666
POINT Z (103.822534722305 1.45026201712259 0),HAO MART PTE. LTD.,505,CANBERRA LINK,1,750505,NW16763X000,733B18B4ACCAF368,505 CANBERRA LINK,False,True,SEMBAWANG,ADMIRALTY,103.822534722305,1.45026201712259
POINT Z (103.895387026654 1.40322711960687 0),U STARS SUPERMARKET PTE. LTD.,218,SUMANG WALK,1,820218,NE16747J000,6801753CCE93D6C0,218 SUMANG WALK,False,False,PUNGGOL,MATILDA,103.895387026654,1.40322711960687
POINT Z (103.906138013326 1.40371939366127 0),SHENG SIONG SUPERMARKET PTE LTD,301,PUNGGOL CENTRAL,1,820301,NE09359K000,368A58B59E61ED3A,301 PUNGGOL CENTRAL,False,True,PUNGGOL,PUNGGOL TOWN CENTRE,103.906138013326,1.40371939366127
POINT Z (103.916054504161 1.39946117297002 0),ANG MO SUPERMARKET PTE LTD,639,PUNGGOL DRIVE,1,820639,NE10113B000,744B7E524E86F37A,639 PUNGGOL DRIVE,False,False,PUNGGOL,WATERWAY EAST,103.916054504161,1.39946117297002
POINT Z (103.911991279242 1.40566047542135 0),COLD STORAGE SINGAPORE (1983) PTE LTD,671,EDGEFIELD PLAINS,1,820671,NE15611B000,88A54805C5AC09E5,671 EDGEFIELD PLAINS,False,True,PUNGGOL,WATERWAY EAST,103.911991279242,1.40566047542135
POINT Z (103.857010987509 1.30778510070706 0),SHENG SIONG SUPERMARKET PTE LTD,1,JALAN BERSEH,2,209037,E02140N000,0345D533171F248C,1 JALAN BERSEH,False,True,ROCHOR,SUNGEI ROAD,103.857010987509,1.30778510070706
POINT Z (103.822962948156 1.30561167116125 0),SWISS BUTCHERY PTE LTD,56,TANGLIN ROAD,2,247964,CE08808B000,D99248D34354E1BE,56 TANGLIN ROAD,False,False,TANGLIN,NASSIM,103.822962948156,1.30561167116125
POINT Z (103.814245545298 1.32257317593847 0),COLD STORAGE SINGAPORE (1983) PTE LTD,501,BUKIT TIMAH ROAD,2,259760,CE06464C000,D1ABF0A0B5C637CE,501 BUKIT TIMAH ROAD,False,True,TANGLIN,TYERSALL,103.814245545298,1.32257317593847
POINT Z (104.003578458884 1.32674394478206 0),CP MANAGEMENT SERVICES PRIVATE LIMITED,80,TANAH MERAH COAST ROAD,2,498820,SE11799C000,599829D46E4420F1,80 TANAH MERAH COAST ROAD,False,False,CHANGI,CHANGI AIRPORT,104.003578458884,1.32674394478206
POINT Z (103.732882480415 1.31923811377776 0),VINAYAK TRADERS PTE. LTD.,27,PENJURU WALK,8/9,608538,SW14A33P000,A0432C0990529075,27 PENJURU WALK,False,False,JURONG EAST,JURONG RIVER,103.732882480415,1.31923811377776
POINT Z (103.796105205941 1.31052978656723 0),TASTE (SINGAPORE) PRIVATE LIMITED,118,HOLLAND AVENUE,1/10,278997,CE17174A000,DBF9D2A6796F3D09,118 HOLLAND AVENUE,False,False,BUKIT TIMAH,LEEDON PARK,103.796105205941,1.31052978656723
POINT Z (103.84160082548 1.43303198083989 0),SHENG SIONG SUPERMARKET PTE LTD,18,YISHUN AVENUE 9,6/10,768897,NW16388B000,C02858D0C7FCA12C,18 YISHUN AVENUE 9,False,True,YISHUN,YISHUN EAST,103.84160082548,1.43303198083989
POINT Z (103.744383226701 1.37743962647899 0),PRIME SUPERMARKET (1996) PTE LTD,253,CHOA CHU KANG AVENUE 1,7/10,680253,J02018L000,46CC84CC4F0D3913,253 CHOA CHU KANG AVENUE 1,False,True,CHOA CHU KANG,KEAT HONG,103.744383226701,1.37743962647899
POINT Z (103.843674239785 1.32696540868721 0),CAVEMEN PTE. LTD.,1,JALAN DUSUN,9/10,329363,CE17A77E000,F4449940E4C4ABD0,1 JALAN DUSUN,False,False,NOVENA,BALESTIER,103.843674239785,1.32696540868721
POINT Z (103.828164400669 1.30766861522346 0),COLD STORAGE SINGAPORE (1983) PTE LTD,442,ORCHARD ROAD,1/11,238879,CE15577J000,989ED1BC8569B55D,442 ORCHARD ROAD,False,True,ORCHARD,BOULEVARD,103.828164400669,1.30766861522346
POINT Z (103.839758898411 1.30197804716068 0),COLD STORAGE SINGAPORE (1983) PTE LTD,176,ORCHARD ROAD,9/11,238843,W89166E000,17CFC6C924B84529,176 ORCHARD ROAD,False,True,ORCHARD,SOMERSET,103.839758898411,1.30197804716068
POINT Z (103.6788181373 1.3467646554181 0),PRIME SUPERMARKET (1996) PTE LTD,50,NANYANG AVENUE,1/26,639798,SW15D03B000,1D5749FF4E6AF346,50 NANYANG AVENUE,False,True,WESTERN WATER CATCHMENT,WESTERN WATER CATCHMENT,103.6788181373,1.3467646554181
POINT Z (103.92365787344 1.31275329888806 0),COLD STORAGE SINGAPORE (1983) PTE LTD,2,FIRST STREET,5/16,458278,SE13S89V000,30A8716BD32C4F42,2 FIRST STREET,False,True,BEDOK,FRANKEL,103.92365787344,1.31275329888806
POINT Z (103.903965194579 1.31714973629572 0),MOHAMAD DAMAR HULAN BIN OSMAN,212,CHANGI ROAD,,419735,SE12H46E000,91358F6644582728,212 CHANGI ROAD,False,False,GEYLANG,GEYLANG EAST,103.903965194579,1.31714973629572
POINT Z (103.899711254654 1.31290445966393 0),THE FOODSPREE PTE LTD,162,JOO CHIAT ROAD,1,427437,SE17760J000,6B70C98334A7900E,162 JOO CHIAT ROAD,False,False,GEYLANG,GEYLANG EAST,103.899711254654,1.31290445966393
POINT Z (103.923769733618 1.30706067505236 0),HAO MART PTE. LTD.,15,SIGLAP ROAD,1,448912,SE06112L000,B31A9CAEF4BD12EC,15 SIGLAP ROAD,False,True,BEDOK,SIGLAP,103.923769733618,1.30706067505236
POINT Z (103.948257061053 1.33142685592296 0),COLD STORAGE SINGAPORE (1983) PTE LTD,348,BEDOK ROAD,1,469560,E02047E000,4835124FDE1C7B9A,348 BEDOK ROAD,False,True,BEDOK,BEDOK NORTH,103.948257061053,1.33142685592296
POINT Z (103.9233039386 1.33824202544731 0),SHENG SIONG SUPERMARKET PTE LTD,739A,BEDOK RESERVOIR ROAD,1,471739,S02048B000,40A738BBDE9EE8FA,739A BEDOK RESERVOIR ROAD,False,True,BEDOK,BEDOK RESERVOIR,103.9233039386,1.33824202544731
POINT Z (103.958647646173 1.36899800601439 0),COLD STORAGE SINGAPORE (1983) PTE LTD,440,PASIR RIS DRIVE 4,1,510440,S02033P000,353C727A2E363784,440 PASIR RIS DRIVE 4,False,True,PASIR RIS,PASIR RIS DRIVE,103.958647646173,1.36899800601439
POINT Z (103.947922430563 1.36968624846978 0),SHENG SIONG SUPERMARKET PTE LTD,527D,PASIR RIS STREET 51,1,514527,NE15276N000,C214942E4161701D,527D PASIR RIS STREET 51,False,True,PASIR RIS,PASIR RIS CENTRAL,103.947922430563,1.36968624846978
POINT Z (103.879309100327 1.380850346979 0),COLD STORAGE SINGAPORE (1983) PTE LTD,982,BUANGKOK CRESCENT,1,530982,S02185J000,031E40D3FEF38A83,982 BUANGKOK CRESCENT,False,True,HOUGANG,TRAFALGAR,103.879309100327,1.380850346979
POINT Z (103.843892126913 1.32042967863542 0),L M MEAT PTE. LTD.,10,SINARAN DRIVE,55,307506,CE07T39B000,3FF83B006D88AA4B,10 SINARAN DRIVE,False,False,NOVENA,MOULMEIN,103.843892126913,1.32042967863542
POINT Z (103.805009970565 1.2886146910195 0),FISHOP PTE. LTD.,370,ALEXANDRA ROAD,58,159953,CE07B77K000,28E3628D4568AB92,370 ALEXANDRA ROAD,False,False,QUEENSTOWN,MEI CHIN,103.805009970565,1.2886146910195
POINT Z (103.843437329467 1.2811973776484 0),HONG HENG SENG,5,BANDA STREET,92,50005,W02076J000,6E74948EC7D9ED8B,5 BANDA STREET,False,False,OUTRAM,CHINATOWN,103.843437329467,1.2811973776484
POINT Z (103.746638245311 1.33502430397913 0),COLD STORAGE SINGAPORE (1983) PTE LTD,2,JURONG EAST STREET 21,100,609601,C02026X000,5667B9EA3683CA7E,2 JURONG EAST STREET 21,False,True,JURONG EAST,TOH GUAN,103.746638245311,1.33502430397913
POINT Z (103.769076732946 1.31770281913597 0),U STARS SUPERMARKET PTE. LTD.,345,CLEMENTI AVENUE 5,78,120345,C02047J000,01D0EB935D16A631,345 CLEMENTI AVENUE 5,False,False,CLEMENTI,CLEMENTI NORTH,103.769076732946,1.31770281913597
POINT Z (103.731948910121 1.31800981292651 0),KEK HONG HENG,23,PENJURU WALK,81,608537,SW11512N000,FE19D2BDE3D1F3D8,23 PENJURU WALK,False,False,JURONG EAST,JURONG RIVER,103.731948910121,1.31800981292651
POINT Z (103.893980506642 1.36271446207954 0),LIM KING CHEW,6,HOUGANG AVENUE 3,82,530006,S02025P000,1A895F32C8AE029B,6 HOUGANG AVENUE 3,False,False,HOUGANG,KANGKAR,103.893980506642,1.36271446207954
POINT Z (103.905113590458 1.30119131472187 0),COLD STORAGE SINGAPORE (1983) PTE LTD,80,MARINE PARADE ROAD,84,449269,E02027N000,8F1010F8C89F11EE,80 MARINE PARADE ROAD,False,True,MARINE PARADE,MARINE PARADE,103.905113590458,1.30119131472187
POINT Z (103.934734229515 1.3206250589085 0),PRIME SUPERMARKET (1996) PTE LTD,18,BEDOK SOUTH ROAD,87,460018,E75097C000,8F06CB55CF827A37,18 BEDOK SOUTH ROAD,False,True,BEDOK,BEDOK SOUTH,103.934734229515,1.3206250589085
POINT Z (103.754071407342 1.37829768231985 0),SHENG SIONG SUPERMARKET PTE LTD,18,TECK WHYE LANE,95,680018,SW11423N000,3E77913DDFAFABC6,18 TECK WHYE LANE,False,True,CHOA CHU KANG,TECK WHYE,103.754071407342,1.37829768231985
POINT Z (103.887363072166 1.32000040915087 0),COLD STORAGE SINGAPORE (1983) PTE LTD,118,ALJUNIED AVENUE 2,100,380118,E02045K000,1914E450786226A9,118 ALJUNIED AVENUE 2,False,True,GEYLANG,ALJUNIED,103.887363072166,1.32000040915087
POINT Z (103.855541071679 1.33904479825353 0),SHENG SIONG SUPERMARKET PTE LTD,4,LORONG 7 TOA PAYOH,107,310004,S97079B000,E5C75EE5144F7D35,4 LORONG 7 TOA PAYOH,False,True,TOA PAYOH,LORONG 8 TOA PAYOH,103.855541071679,1.33904479825353
POINT Z (103.938051292004 1.33233467983413 0),MCP FAIRMART PTE LTD,89,BEDOK NORTH STREET 4,107,460089,SE04109X000,47C2F9061840D0BB,89 BEDOK NORTH STREET 4,False,False,BEDOK,BEDOK NORTH,103.938051292004,1.33233467983413
POINT Z (103.737623311665 1.33658465251142 0),ONE EIGHT SHOP PTE. LTD.,104,JURONG EAST STREET 13,110,600104,C02051P000,6AFBF09ADA48B550,104 JURONG EAST STREET 13,False,False,JURONG EAST,YUHUA EAST,103.737623311665,1.33658465251142
POINT Z (103.749579874348 1.35831704701199 0),COLD STORAGE SINGAPORE (1983) PTE LTD,376,BUKIT BATOK STREET 31,116,650376,J02021A000,14691F27403F0437,376 BUKIT BATOK STREET 31,False,True,BUKIT BATOK,HONG KAH NORTH,103.749579874348,1.35831704701199
POINT Z (103.931091390123 1.33306648172659 0),COLD STORAGE SINGAPORE (1983) PTE LTD,509,BEDOK NORTH STREET 3,121,460509,E02033X000,DBC4E5F58BFBC41A,509 BEDOK NORTH STREET 3,False,True,BEDOK,BEDOK NORTH,103.931091390123,1.33306648172659
POINT Z (103.958247655538 1.3599856700583 0),HAO MART PTE. LTD.,487B,TAMPINES STREET 45,123,521487,NE16875P000,E3FAC5AE02485B70,487B TAMPINES STREET 45,False,True,TAMPINES,TAMPINES EAST,103.958247655538,1.3599856700583
POINT Z (103.828762985206 1.43061828496815 0),COLD STORAGE SINGAPORE (1983) PTE LTD,102,YISHUN AVENUE 5,125,760102,NW04014P000,502E558822C8BBB2,102 YISHUN AVENUE 5,False,True,YISHUN,YISHUN WEST,103.828762985206,1.43061828496815
POINT Z (103.819341304521 1.2777953943487 0),COLD STORAGE SINGAPORE (1983) PTE LTD,8,TELOK BLANGAH CRESCENT,171,90008,W74072X000,4D8CBBA81AEA0B48,8 TELOK BLANGAH CRESCENT,False,True,BUKIT MERAH,TELOK BLANGAH WAY,103.819341304521,1.2777953943487
POINT Z (103.788532895746 1.31008118565207 0),COLD STORAGE SINGAPORE (1983) PTE LTD,21,GHIM MOH ROAD,177,270021,C79031J000,B6E8BEA1549C78B1,21 GHIM MOH ROAD,False,True,QUEENSTOWN,GHIM MOH,103.788532895746,1.31008118565207
POINT Z (103.742708640389 1.34857536716152 0),PRIME SUPERMARKET LIMITED,159,BUKIT BATOK STREET 11,178,650159,SW04097K000,7CE6D616AAB9E0B8,159 BUKIT BATOK STREET 11,False,True,BUKIT BATOK,BUKIT BATOK WEST,103.742708640389,1.34857536716152
POINT Z (103.835000770936 1.41601879836322 0),SHENG SIONG SUPERMARKET PTE LTD,845,YISHUN STREET 81,184,760845,B02008E000,F73842A56A4B09A1,845 YISHUN STREET 81,False,True,YISHUN,YISHUN SOUTH,103.835000770936,1.41601879836322
POINT Z (103.901929745106 1.32987219697453 0),COLD STORAGE SINGAPORE (1983) PTE LTD,306,UBI AVENUE 1,185,400306,E02030B000,24FC585C5D8DC210,306 UBI AVENUE 1,False,True,GEYLANG,KAMPONG UBI,103.901929745106,1.32987219697453
POINT Z (103.879938988612 1.37170342503995 0),ANG MO SUPERMARKET PTE LTD,642,HOUGANG AVENUE 8,197,530642,S93171X000,5FADCA4B621EA5B3,642 HOUGANG AVENUE 8,False,False,HOUGANG,HOUGANG WEST,103.879938988612,1.37170342503995
POINT Z (103.89797741752 1.31672515166437 0),EN FROZEN PTE LTD,1,GEYLANG SERAI,198,402001,SE11317V000,B550DA1FD304D649,1 GEYLANG SERAI,False,False,GEYLANG,GEYLANG EAST,103.89797741752,1.31672515166437
POINT Z (103.778972465008 1.32044171174546 0),LAURELS FOODS SUPPLIERS PTE LTD,2,PANDAN VALLEY,204,597626,C02031B000,BB27373EF4F27873,2 PANDAN VALLEY,False,False,BUKIT TIMAH,ULU PANDAN,103.778972465008,1.32044171174546
POINT Z (103.837125285904 1.42750547876461 0),SHENG SIONG SUPERMARKET PTE LTD,925,YISHUN CENTRAL 1,211,760925,B02038P000,D235B3C4A58CE395,925 YISHUN CENTRAL 1,False,True,YISHUN,YISHUN CENTRAL,103.837125285904,1.42750547876461
POINT Z (103.773515667645 1.43150526868815 0),SHENG SIONG SUPERMARKET PTE LTD,301,WOODLANDS STREET 31,217,730301,B02017C000,64A8DFCD999CAD56,301 WOODLANDS STREET 31,False,True,WOODLANDS,WOODGROVE,103.773515667645,1.43150526868815
POINT Z (103.870756830653 1.35367102829776 0),TEO BOBBY,253,SERANGOON CENTRAL DRIVE,241,550253,SE05117K000,D114617AB5581E84,253 SERANGOON CENTRAL DRIVE,False,False,SERANGOON,SERANGOON CENTRAL,103.870756830653,1.35367102829776
POINT Z (103.951702778283 1.34753518989402 0),SHAHUL HAMEED S/O ABDUSALAM,280,TAMPINES STREET 22,244,520280,NE10213X000,8BAE5210234A53DA,280 TAMPINES STREET 22,False,False,TAMPINES,TAMPINES EAST,103.951702778283,1.34753518989402
POINT Z (103.757276703167 1.34669905043909 0),COLD STORAGE SINGAPORE (1983) PTE LTD,284,BUKIT BATOK EAST AVENUE 3,251,650284,SW07070J000,3652B729F46A939A,284 BUKIT BATOK EAST AVENUE 3,False,True,BUKIT BATOK,BUKIT BATOK EAST,103.757276703167,1.34669905043909
POINT Z (103.871472859034 1.35323163805116 0),COLD STORAGE SINGAPORE (1983) PTE LTD,266,SERANGOON CENTRAL DRIVE,255,550266,E02028L000,F3867F9163763643,266 SERANGOON CENTRAL DRIVE,False,True,SERANGOON,SERANGOON CENTRAL,103.871472859034,1.35323163805116
POINT Z (103.915376080603 1.30560570262798 0),COLD STORAGE SINGAPORE (1983) PTE LTD,56,MARINE TERRACE,259,440056,SE09608P000,8CE628CE4303B82E,56 MARINE TERRACE,False,True,MARINE PARADE,MARINE PARADE,103.915376080603,1.30560570262798
POINT Z (103.888248444761 1.32918105553869 0),SHENG SIONG SUPERMARKET PTE LTD,18B,CIRCUIT ROAD,260,372018,SE16233J000,B7D0FE08A8967DDA,18B CIRCUIT ROAD,False,True,GEYLANG,MACPHERSON,103.888248444761,1.32918105553869
POINT Z (103.837605239088 1.4361142481059 0),COLD STORAGE SINGAPORE (1983) PTE LTD,293,YISHUN STREET 22,261,760293,B02039N000,51FA7180CB382D8D,293 YISHUN STREET 22,False,True,YISHUN,NORTHLAND,103.837605239088,1.4361142481059
POINT Z (103.751954418498 1.38079049151902 0),PRIME SUPERMARKET (1996) PTE LTD,142,TECK WHYE LANE,281,680142,J02020B000,FF01CED19928BCFB,142 TECK WHYE LANE,False,True,CHOA CHU KANG,TECK WHYE,103.751954418498,1.38079049151902
POINT Z (103.895144898127 1.36620942758889 0),TAN CHUAN BOON,309,HOUGANG AVENUE 5,293,530309,S02031V000,F8DE90AE393B33DE,309 HOUGANG AVENUE 5,False,False,HOUGANG,KANGKAR,103.895144898127,1.36620942758889
POINT Z (103.859382727107 1.32161904109972 0),SHENG SIONG SUPERMARKET PTE LTD,108,MCNAIR ROAD,295,321108,CE04558K000,4CC1CB0B8B0201C4,108 MCNAIR ROAD,False,True,KALLANG,BENDEMEER,103.859382727107,1.32161904109972
POINT Z (103.691483120672 1.34201783432949 0),PRIME SUPERMARKET LIMITED,962,JURONG WEST STREET 91,300,640962,J02019K000,D51B8945FA526A74,962 JURONG WEST STREET 91,False,True,JURONG WEST,YUNNAN,103.691483120672,1.34201783432949
POINT Z (103.739371389066 1.33375343289468 0),MCP FAIRMART PTE LTD,135,JURONG GATEWAY ROAD,317,600135,SW16H72K000,6D7812A14417D165,135 JURONG GATEWAY ROAD,False,False,JURONG EAST,JURONG GATEWAY,103.739371389066,1.33375343289468
POINT Z (103.936865411478 1.33143368800346 0),SHENG SIONG SUPERMARKET PTE LTD,115,BEDOK NORTH ROAD,319,460115,E03034J000,E18CE8EB9090BFA4,115 BEDOK NORTH ROAD,False,True,BEDOK,BEDOK NORTH,103.936865411478,1.33143368800346
POINT Z (103.857752875465 1.32471580637604 0),HAO MART PTE. LTD.,74,WHAMPOA DRIVE,332,320074,CE12695A000,8AB069D8BF67D549,74 WHAMPOA DRIVE,False,True,NOVENA,BALESTIER,103.857752875465,1.32471580637604
POINT Z (103.839555012608 1.2471504063107 0),COLD STORAGE SINGAPORE (1983) PTE LTD,1,COVE AVENUE,,98537,SW12G71E000,C3D5F929E0BF74E9,1 COVE AVENUE,False,True,SOUTHERN ISLANDS,SENTOSA,103.839555012608,1.2471504063107
POINT Z (103.818625588159 1.26206336450486 0),COLD STORAGE SINGAPORE (1983) PTE LTD,1,MARITIME SQUARE,,99253,C03010C000,41CC26A55FE32FD1,1 MARITIME SQUARE,False,True,BUKIT MERAH,MARITIME SQUARE,103.818625588159,1.26206336450486
POINT Z (103.76528451751 1.30358269052594 0),L M MEAT PTE. LTD.,154,WEST COAST ROAD,14,127371,SW13368A000,50EDCA333459AAED,154 WEST COAST ROAD,False,False,CLEMENTI,CLEMENTI WOODS,103.76528451751,1.30358269052594
POINT Z (103.749700044104 1.3775438427841 0),U STARS PTE. LTD.,817,KEAT HONG LINK,14,680817,SW17728C000,7BD5B543B421E5B1,817 KEAT HONG LINK,False,False,CHOA CHU KANG,KEAT HONG,103.749700044104,1.3775438427841
POINT Z (103.732882480415 1.31923811377776 0),GURU'S MARKETING PTE. LTD.,27,PENJURU WALK,15,608538,SW14A98C000,A0432C09253BE603,27 PENJURU WALK,False,False,JURONG EAST,JURONG RIVER,103.732882480415,1.31923811377776
POINT Z (103.831507328438 1.3058097922131 0),ISETAN (SINGAPORE) LIMITED?,350,ORCHARD ROAD,0,238868,W02078C000,3C154CA4E781061B,350 ORCHARD ROAD,False,False,ORCHARD,BOULEVARD,103.831507328438,1.3058097922131
POINT Z (103.768637301316 1.30973331408822 0),SHENG SIONG SUPERMARKET PTE LTD,420A,CLEMENTI AVENUE 1,1,121420,SW12M67E000,DE18128F153BF8DA,420A CLEMENTI AVENUE 1,False,True,CLEMENTI,CLEMENTI WOODS,103.768637301316,1.30973331408822
POINT Z (103.769369393442 1.30176130745621 0),COLD STORAGE SINGAPORE (1983) PTE LTD,101,CLEMENTI ROAD,1,129787,SW12G70J000,6C94406E7980DE1E,101 CLEMENTI ROAD,False,True,CLEMENTI,CLEMENTI WOODS,103.769369393442,1.30176130745621
POINT Z (103.809758594158 1.29531966854901 0),SHENG SIONG SUPERMARKET PTE LTD,85,DAWSON ROAD,1,141085,CE15J25N000,0719F41B2685D412,85 DAWSON ROAD,False,True,QUEENSTOWN,MARGARET DRIVE,103.809758594158,1.29531966854901
POINT Z (103.853119912535 1.29389358752931 0),COLD STORAGE SINGAPORE (1983) PTE LTD,252,NORTH BRIDGE ROAD,1,179103,W02080P000,8B7EB61131D50013,252 NORTH BRIDGE ROAD,False,True,DOWNTOWN CORE,CITY HALL,103.853119912535,1.29389358752931
POINT Z (103.83467613466 1.30242417909428 0),COLD STORAGE SINGAPORE (1983) PTE LTD,391A,ORCHARD ROAD,1,238873,W02071X000,80D12C516AF6A370,391A ORCHARD ROAD,False,True,ORCHARD,BOULEVARD,103.83467613466,1.30242417909428
POINT Z (103.857378075734 1.33211277384514 0),COLD STORAGE SINGAPORE (1983) PTE LTD,260,KIM KEAT AVENUE,1,310260,S02204N000,E12DD20C880150F2,260 KIM KEAT AVENUE,False,True,TOA PAYOH,KIM KEAT,103.857378075734,1.33211277384514
POINT Z (103.803107635392 1.29090918346994 0),NTUC FAIRPRICE CO-OPERATIVE LTD,170,STIRLING ROAD,1147,140170,W70029L000,083909CF5A11C1D9,170 STIRLING ROAD,True,True,QUEENSTOWN,MEI CHIN,103.803107635392,1.29090918346994
POINT Z (103.844697090786 1.28499883856532 0),NTUC FAIRPRICE CO-OPERATIVE LTD,133,NEW BRIDGE ROAD,1,59413,W90084A000,FC1B4354666A9811,133 NEW BRIDGE ROAD,True,True,OUTRAM,CHINA SQUARE,103.844697090786,1.28499883856532
POINT Z (103.843463185078 1.31733464253519 0),COLD STORAGE SINGAPORE (1983) PTE LTD,101,THOMSON ROAD,52,307591,W02065N000,65E2947E894C02E6,101 THOMSON ROAD,False,True,NOVENA,MOULMEIN,103.843463185078,1.31733464253519
POINT Z (103.887832026894 1.37924528806956 0),COLD STORAGE SINGAPORE (1983) PTE LTD,21,HOUGANG STREET 51,52,538719,S97166P000,66FF1CEE29C4C715,21 HOUGANG STREET 51,False,True,HOUGANG,TRAFALGAR,103.887832026894,1.37924528806956
POINT Z (103.924370235887 1.32476040694715 0),TEO BOBBY,29,CHAI CHEE AVENUE,62,460029,E02072C000,A81AA2A3337923E7,29 CHAI CHEE AVENUE,False,False,BEDOK,KEMBANGAN,103.924370235887,1.32476040694715
POINT Z (103.865163649373 1.30275121791614 0),LOH NYEN YIU,5001,BEACH ROAD,64,199588,W02081N000,635E6A29436D68D7,5001 BEACH ROAD,False,False,KALLANG,CRAWFORD,103.865163649373,1.30275121791614
POINT Z (103.732882480415 1.31923811377776 0),ARCHANA PROVISION STORES PTE. LTD,27,PENJURU WALK,6/7,608538,SW15051V000,A0432C0985FCC4C3,27 PENJURU WALK,False,False,JURONG EAST,JURONG RIVER,103.732882480415,1.31923811377776
POINT Z (103.732527150838 1.31621042313667 0),KINGSMART PTE. LTD.,30,PENJURU PLACE,6/7,608557,SW07E27X000,0F6D13BF0DC0EF26,30 PENJURU PLACE,False,False,JURONG EAST,JURONG RIVER,103.732527150838,1.31621042313667
POINT Z (103.850795182002 1.27830730320321 0),AP HOUSE PTE. LTD.,12,MARINA VIEW,6/8,18961,CE13Z38L000,C03E4F08E8A27439,12 MARINA VIEW,False,False,DOWNTOWN CORE,CENTRAL SUBZONE,103.850795182002,1.27830730320321
POINT Z (103.936894516324 1.31179544978998 0),HAO MART PTE. LTD.,54,BAYSHORE ROAD,7/8,469979,SE06125B000,E7685B45E7065C1E,54 BAYSHORE ROAD,False,True,BEDOK,BAYSHORE,103.936894516324,1.31179544978998
POINT Z (103.955419467871 1.3214476908532 0),COLD STORAGE SINGAPORE (1983) PTE LTD,20,EASTWOOD ROAD,7/9,486442,E02026P000,B5DBBE626BDFD653,20 EASTWOOD ROAD,False,True,BEDOK,BEDOK SOUTH,103.955419467871,1.3214476908532
POINT Z (103.889246757276 1.39684979447052 0),U STARS SUPERMARKET PTE. LTD.,330,ANCHORVALE STREET,1,540330,CE15B61K000,D250CAB12D8D3A0D,330 ANCHORVALE STREET,False,False,SENGKANG,ANCHORVALE,103.889246757276,1.39684979447052
POINT Z (103.892787164081 1.38977025366003 0),U STARS SUPERMARKET PTE. LTD.,215C,COMPASSVALE DRIVE,1,543215,NE17098V000,793A9BCB421F13D1,215C COMPASSVALE DRIVE,False,False,SENGKANG,SENGKANG TOWN CENTRE,103.892787164081,1.38977025366003
POINT Z (103.871416983339 1.37368392879254 0),PRIME SUPERMARKET (1996) PTE LTD,542B,SERANGOON NORTH AVENUE 3,1,552542,CE12H94B000,ADD3BD299418E130,542B SERANGOON NORTH AVENUE 3,False,True,SERANGOON,SERANGOON NORTH,103.871416983339,1.37368392879254
POINT Z (103.836053654084 1.35184498235634 0),SHENG SIONG SUPERMARKET PTE LTD,200,UPPER THOMSON ROAD,1,574424,S02058V000,831F1DF2843B26CE,200 UPPER THOMSON ROAD,False,True,BISHAN,UPPER THOMSON,103.836053654084,1.35184498235634
POINT Z (103.837963232741 1.44518329012928 0),PHAN NEE INVESTMENTS (S) PTE LTD,2C,YISHUN AVENUE 7,3,768930,NW11577N000,0191B775DD3073E5,2C YISHUN AVENUE 7,False,False,SIMPANG,SIMPANG NORTH,103.837963232741,1.44518329012928
POINT Z (103.832979911333 1.41738336744103 0),COLD STORAGE SINGAPORE (1983) PTE LTD,201,YISHUN AVENUE 2,3,769092,CE05039P000,80B0CB527C73AAFD,201 YISHUN AVENUE 2,False,True,YISHUN,KHATIB,103.832979911333,1.41738336744103
POINT Z (103.896447890319 1.41833137911794 0),GW TRADER PTE. LTD.,8,SELETAR NORTH LINK,3,797455,CE15023A000,C4B92BA307F65241,8 SELETAR NORTH LINK,False,False,SELETAR,PULAU PUNGGOL TIMOR,103.896447890319,1.41833137911794
POINT Z (103.729751339131 1.32078791294416 0),PHANG NEE ENTERPRISE PTE. LTD.,2D,JALAN PAPAN,4,619415,SW09426V000,E648E4A883B5F03D,2D JALAN PAPAN,False,False,JURONG EAST,JURONG RIVER,103.729751339131,1.32078791294416
POINT Z (103.900371678954 1.41081926280607 0),SHENG SIONG SUPERMARKET PTE LTD,312A,SUMANG LINK,4,821312,NE15211C000,B6B14868AA512083,312A SUMANG LINK,False,True,PUNGGOL,PUNGGOL TOWN CENTRE,103.900371678954,1.41081926280607
POINT Z (103.905113590458 1.30119131472187 0),FOUR SEASONS ORGANIC MARKET PTE. LTD.,80,MARINE PARADE ROAD,83A,449269,SE10553J000,8F1010F867E6823A,80 MARINE PARADE ROAD,False,False,MARINE PARADE,MARINE PARADE,103.905113590458,1.30119131472187
POINT Z (103.905113590458 1.30119131472187 0),THE BUTCHER (SINGAPORE) PTE. LTD.,80,MARINE PARADE ROAD,83B,449269,SE05244V000,8F1010F8F042E045,80 MARINE PARADE ROAD,False,False,MARINE PARADE,MARINE PARADE,103.905113590458,1.30119131472187
POINT Z (103.771350566042 1.31427860895568 0),SHENG SIONG SUPERMARKET PTE LTD,352,CLEMENTI AVENUE 2,91&99,120352,SW07331C000,562A45952D810D4C,352 CLEMENTI AVENUE 2,False,True,CLEMENTI,CLEMENTI NORTH,103.771350566042,1.31427860895568
POINT Z (103.715759509791 1.3523935762758 0),SHENG SIONG SUPERMARKET PTE LTD,544,JURONG WEST STREET 42,97/99,640544,J02009N000,3C89C17544EA684C,544 JURONG WEST STREET 42,False,True,JURONG WEST,HONG KAH,103.715759509791,1.3523935762758
POINT Z (103.770265909205 1.32212393765921 0),THNG SAIK MONG,108,CLEMENTI STREET 11,K1,120108,NW06239N000,EC8E203FA856D486,108 CLEMENTI STREET 11,False,False,CLEMENTI,SUNSET WAY,103.770265909205,1.32212393765921
POINT Z (103.848208491053 1.35803524250899 0),HAO MART PTE. LTD.,222,BISHAN STREET 23,K1,570222,CE17A46V000,F48D7D476EB9E37F,222 BISHAN STREET 23,False,True,BISHAN,MARYMOUNT,103.848208491053,1.35803524250899
POINT Z (103.960042189056 1.35436493617486 0),COLD STORAGE SINGAPORE (1983) PTE LTD,9,TAMPINES STREET 32,30,529286,S02036K000,A5B097A242B8FB73,9 TAMPINES STREET 32,False,True,TAMPINES,TAMPINES EAST,103.960042189056,1.35436493617486
POINT Z (103.796846522878 1.45074972989745 0),SHENG SIONG SUPERMARKET PTE LTD,200,WOODLANDS INDUSTRIAL PARK E7,30,757177,NW11702X000,41FBB24812E8C6AB,200 WOODLANDS INDUSTRIAL PARK E7,False,True,WOODLANDS,SENOKO WEST,103.796846522878,1.45074972989745
POINT Z (103.862005875543 1.30832700959572 0),MAHOTA FOOD PTE. LTD.,809,FRENCH ROAD,31,200809,CE16445A000,4A222C796326E0C7,809 FRENCH ROAD,False,False,KALLANG,LAVENDER,103.862005875543,1.30832700959572
POINT Z (103.726722841969 1.32048426082957 0),GURU'S MARKETING PTE. LTD.,1,JALAN PAPAN,31,619392,SW16735N000,1E09589A3EDD3F36,1 JALAN PAPAN,False,False,JURONG EAST,JURONG RIVER,103.726722841969,1.32048426082957
POINT Z (103.726722841969 1.32048426082957 0),VINAYAK TRADERS PTE. LTD.,1,JALAN PAPAN,33,619392,SW16814X000,1E09589A5C0BA14C,1 JALAN PAPAN,False,False,JURONG EAST,JURONG RIVER,103.726722841969,1.32048426082957
POINT Z (103.798140996577 1.44562289934866 0),COLD STORAGE SINGAPORE (1983) PTE LTD,768,WOODLANDS AVENUE 6,34,730768,B02012N000,950F57EF3B788BCD,768 WOODLANDS AVENUE 6,False,True,WOODLANDS,WOODLANDS EAST,103.798140996577,1.44562289934866
POINT Z (103.726722841969 1.32048426082957 0),CHENNAI TRADING & SUPERMART PTE. LTD.,1,JALAN PAPAN,35,619392,SW16921N000,1E09589A4A78159F,1 JALAN PAPAN,False,False,JURONG EAST,JURONG RIVER,103.726722841969,1.32048426082957
POINT Z (103.76056171553 1.40631204506347 0),AJMAL TRADE MART PTE. LTD.,23,MANDAI ESTATE,21,729937,NW09331A000,F91E53BF15A78A43,23 MANDAI ESTATE,False,False,SUNGEI KADUT,GALI BATU,103.76056171553,1.40631204506347
POINT Z (103.962389306789 1.3343251542009 0),L M MEAT PTE. LTD.,5,CHANGI BUSINESS PARK CENTRAL 1,23,486038,SE11D22K000,5B8B133D6E6BE963,5 CHANGI BUSINESS PARK CENTRAL 1,False,False,TAMPINES,XILIN,103.962389306789,1.3343251542009
POINT Z (103.732882480415 1.31923811377776 0),SHENG SIONG SUPERMARKET PTE LTD,27,PENJURU WALK,24,608538,SW14817E000,A0432C09836AEEC5,27 PENJURU WALK,False,True,JURONG EAST,JURONG RIVER,103.732882480415,1.31923811377776
POINT Z (103.791095177079 1.45132505304739 0),SUN TRG & CON PTE LTD,280,WOODLANDS INDUSTRIAL PARK E5,24,757322,NW17024A000,754CC3103C3CE483,280 WOODLANDS INDUSTRIAL PARK E5,False,False,WOODLANDS,SENOKO WEST,103.791095177079,1.45132505304739
POINT Z (103.841580116173 1.28708278767219 0),SHENG SIONG SUPERMARKET PTE LTD,52,CHIN SWEE ROAD,25,160052,W02332N000,A72765F2B59D66AA,52 CHIN SWEE ROAD,False,True,OUTRAM,PEARL'S HILL,103.841580116173,1.28708278767219
POINT Z (103.894980035249 1.39209414927783 0),COLD STORAGE SINGAPORE (1983) PTE LTD,1,SENGKANG SQUARE,25,545078,NE16363K000,51B8227CD39000F8,1 SENGKANG SQUARE,False,True,SENGKANG,SENGKANG TOWN CENTRE,103.894980035249,1.39209414927783
POINT Z (103.824495079721 1.44176714678225 0),COLD STORAGE SINGAPORE (1983) PTE LTD,604,SEMBAWANG ROAD,25,758459,NW08385B000,3586AEA48D4E8AB7,604 SEMBAWANG ROAD,False,True,SEMBAWANG,SEMBAWANG SPRINGS,103.824495079721,1.44176714678225
POINT Z (103.844697090786 1.28499883856532 0),SONG FISH DEALER PTE LTD,133,NEW BRIDGE ROAD,26,59413,CE14938E000,FC1B435462B52865,133 NEW BRIDGE ROAD,False,False,OUTRAM,CHINA SQUARE,103.844697090786,1.28499883856532
POINT Z (103.706460886826 1.33983014805774 0),SONG FISH DEALER PTE LTD,1,JURONG WEST CENTRAL 2,26,648886,C99107C000,CB590967FAAD5A27,1 JURONG WEST CENTRAL 2,False,False,JURONG WEST,JURONG WEST CENTRAL,103.706460886826,1.33983014805774
POINT Z (103.964598501334 1.36645363325574 0),COLD STORAGE SINGAPORE (1983) PTE LTD,259,PASIR RIS STREET 21,27,510259,NE16139A000,652C0F81498EFE84,259 PASIR RIS STREET 21,False,True,PASIR RIS,PASIR RIS DRIVE,103.964598501334,1.36645363325574
POINT Z (103.825310769144 1.27392940817544 0),NG CHAI SENG,109,BUKIT PURMEI ROAD,155,90109,W02100V000,8CB56E5DF3589216,109 BUKIT PURMEI ROAD,False,False,BUKIT MERAH,TELOK BLANGAH RISE,103.825310769144,1.27392940817544
POINT Z (103.750365807136 1.35894636653359 0),PRIME SUPERMARKET LIMITED,373,BUKIT BATOK STREET 31,248,650373,J02017N000,E07CF209E7368285,373 BUKIT BATOK STREET 31,False,True,BUKIT BATOK,HONG KAH NORTH,103.750365807136,1.35894636653359
POINT Z (103.741520112804 1.38062798479668 0),ANG KEN CHUA,410,CHOA CHU KANG AVENUE 3,341,680410,J02008P000,BCB1102BA5E932A1,410 CHOA CHU KANG AVENUE 3,False,False,CHOA CHU KANG,PENG SIANG,103.741520112804,1.38062798479668
POINT Z (103.924236464013 1.33177301702605 0),HAO MART PTE. LTD.,537,BEDOK NORTH STREET 3,555,460537,E82118V000,5A69B1720FA9BADE,537 BEDOK NORTH STREET 3,False,True,BEDOK,BEDOK NORTH,103.924236464013,1.33177301702605
POINT Z (103.931999895836 1.37210169537313 0),COLD STORAGE SINGAPORE (1983) PTE LTD,21,TAMPINES NORTH DRIVE 2,,528765,NE07474A000,B50CCE3157A8E08E,21 TAMPINES NORTH DRIVE 2,False,True,TAMPINES,TAMPINES NORTH,103.931999895836,1.37210169537313
POINT Z (103.887004168998 1.33748492133075 0),SARATHI STORES PTE LTD,91,UPPER PAYA LEBAR ROAD,,534821,SE12F88V000,C3F4B6EEFA4CE889,91 UPPER PAYA LEBAR ROAD,False,False,TOA PAYOH,JOO SENG,103.887004168998,1.33748492133075
POINT Z (103.886109258393 1.33888230373418 0),SIVAMANI MINIMART PTE LTD,141,UPPER PAYA LEBAR ROAD,,534846,SE08722A000,A0EB7400D23CF464,141 UPPER PAYA LEBAR ROAD,False,False,TOA PAYOH,JOO SENG,103.886109258393,1.33888230373418
POINT Z (103.829630867108 1.3730794666261 0),HAO MART PTE. LTD.,16,JALAN KURAS,,577729,CE12V01C000,03EB061A9288FA03,16 JALAN KURAS,False,True,ANG MO KIO,SEMBAWANG HILLS,103.829630867108,1.3730794666261
POINT Z (103.786969223738 1.33661474902075 0),ALTERNATIVE SELECTION PTE. LTD.,29,BINJAI PARK,,589831,NW15264K000,B605DF777DED4788,29 BINJAI PARK,False,False,BUKIT TIMAH,SWISS CLUB,103.786969223738,1.33661474902075
POINT Z (103.636144795044 1.27067712305135 0),TUAS SOUTH MINIMART PTE. LTD.,6,TUAS SOUTH STREET 15,,636906,SW16126J000,A7FC4EC09A5810FF,6 TUAS SOUTH STREET 15,False,False,TUAS,TUAS VIEW EXTENSION,103.636144795044,1.27067712305135
POINT Z (103.627517906632 1.29895146739633 0),NPS IMPEX PTE. LTD,21,TUAS VIEW SQUARE,,637640,SW15681P000,BF85D323906DFB81,21 TUAS VIEW SQUARE,False,False,TUAS,TUAS VIEW,103.627517906632,1.29895146739633
POINT Z (103.724598702353 1.35011243012885 0),COLD STORAGE SINGAPORE (1983) PTE LTD,492,JURONG WEST STREET 41,,640492,J03056N000,48DBA5323037FB2F,492 JURONG WEST STREET 41,False,True,JURONG WEST,HONG KAH,103.724598702353,1.35011243012885
POINT Z (103.703415655686 1.34878489456242 0),SHENG SIONG SUPERMARKET PTE LTD,7,JURONG WEST AVENUE 5,,649486,SW07209E000,C9A2693BECFDA5D3,7 JURONG WEST AVENUE 5,False,True,JURONG WEST,YUNNAN,103.703415655686,1.34878489456242
POINT Z (103.76754238699 1.36012370572957 0),COLD STORAGE SINGAPORE (1983) PTE LTD,464,UPPER BUKIT TIMAH ROAD,,678077,J02011C000,5D6986E9DC48CF0A,464 UPPER BUKIT TIMAH ROAD,False,True,BUKIT PANJANG,NATURE RESERVE,103.76754238699,1.36012370572957
POINT Z (103.76839596811 1.41072219413685 0),GOWRI'S GLOBAL MARKETING PTE. LTD.,460,MANDAI ROAD,,729760,NW16252K000,CE26C864CF610B86,460 MANDAI ROAD,False,False,SUNGEI KADUT,TURF CLUB,103.76839596811,1.41072219413685
POINT Z (103.754008429832 1.43594535916514 0),BALASUBRAMANIYAN KANNADASAN,257,KRANJI ROAD,,739503,J87134E000,46C1FE5A7CAF6D6F,257 KRANJI ROAD,False,False,SUNGEI KADUT,KRANJI,103.754008429832,1.43594535916514
POINT Z (103.759237297885 1.43069358938447 0),AJMAL TRADE MART PTE. LTD.,12,KRANJI ROAD,,739522,SW12L48X000,766E1053F78FFEA2,12 KRANJI ROAD,False,False,SUNGEI KADUT,KRANJI,103.759237297885,1.43069358938447
POINT Z (103.797853420673 1.45122063631724 0),DE ESPERTO MINIMART PTE. LTD.,190,WOODLANDS INDUSTRIAL PARK E7,,757178,NW14006E000,CAAEE3DF101963D5,190 WOODLANDS INDUSTRIAL PARK E7,False,False,WOODLANDS,SENOKO WEST,103.797853420673,1.45122063631724
POINT Z (103.818111275279 1.46138853767873 0),PHAN NEE TRADING LLP,49,ADMIRALTY ROAD WEST,,757444,NW10192C000,44EE12AC694A7E17,49 ADMIRALTY ROAD WEST,False,False,SEMBAWANG,SEMBAWANG NORTH,103.818111275279,1.46138853767873
POINT Z (103.832526372151 1.45343693357051 0),BANGLADESH SUPER MARKET PTE. LTD.,1024,SEMBAWANG ROAD,,758498,B90051N000,F9262E9E10517BDA,1024 SEMBAWANG ROAD,False,False,SEMBAWANG,SEMBAWANG STRAITS,103.832526372151,1.45343693357051
POINT Z (103.872851581637 1.39657415558799 0),LABIBA ENTERPRISE PTE. LTD.,249,JALAN KAYU,,799473,CE13S05E000,0FF35EE831AAA4C4,249 JALAN KAYU,False,False,SENGKANG,FERNVALE,103.872851581637,1.39657415558799
POINT Z (103.897031078181 1.38199703135061 0),COLD STORAGE SINGAPORE (1983) PTE LTD,266,COMPASSVALE BOW,2,540266,NE06429X000,F586BB6B62A2AA32,266 COMPASSVALE BOW,False,True,SENGKANG,COMPASSVALE,103.897031078181,1.38199703135061
POINT Z (103.751807387865 1.33641798055282 0),SHAFEN SUPERMARKET & TRADING (S) PTE. LTD.,18,TOH GUAN ROAD EAST,2,608596,SW14017K000,0D089981EC38DB77,18 TOH GUAN ROAD EAST,False,False,CLEMENTI,TOH TUCK,103.751807387865,1.33641798055282
POINT Z (103.722316838638 1.30859346145721 0),YS LOGISTICS (S) PTE. LTD.,15,JALAN TEPONG,2,619336,SW11146X000,FDA05FF8FFD2C675,15 JALAN TEPONG,False,False,JURONG EAST,JURONG PORT,103.722316838638,1.30859346145721
POINT Z (103.627436995081 1.31335809677308 0),MALAR MARKETING PTE. LTD.,69,TUAS SOUTH AVENUE 1,2,637589,SW16H70N000,90E60A52E1DD0ABA,69 TUAS SOUTH AVENUE 1,False,False,TUAS,TUAS PROMENADE,103.627436995081,1.31335809677308
POINT Z (103.630190017208 1.31069428534009 0),SADIA SUPERMARKET & TRADING (S) PTE. LTD.,14,TECH PARK CRESCENT,2,638118,SW09288C000,564FD14BF0EB5941,14 TECH PARK CRESCENT,False,False,TUAS,TUAS VIEW,103.630190017208,1.31069428534009
POINT Z (103.677129986961 1.32888600553213 0),GOWRI'S GLOBAL MARKETING PTE. LTD.,555,UPPER JURONG ROAD,2,638368,SW08907C000,465BF71AEF1EEEFE,555 UPPER JURONG ROAD,False,False,PIONEER,JOO KOON,103.677129986961,1.32888600553213
POINT Z (103.627916988491 1.31332235103777 0),KAVI TRADERS PTE. LTD.,69R,TUAS SOUTH AVENUE 1,2,639926,SW16B85N000,B6C09A2129D8FC7C,69R TUAS SOUTH AVENUE 1,False,False,TUAS,TUAS PROMENADE,103.627916988491,1.31332235103777
POINT Z (103.758094978446 1.40754324060913 0),BISMILLAH MINIMART PTE. LTD.,32,MANDAI ESTATE,2,729939,NW13J23J000,A00ABF469A50CFF3,32 MANDAI ESTATE,False,False,SUNGEI KADUT,GALI BATU,103.758094978446,1.40754324060913
POINT Z (103.814540291548 1.45551208276585 0),FORTUNE SUPERMARKET PTE. LTD.,463,SEMBAWANG DRIVE,2,750463,NW14040B000,87854E986E0B5C5E,463 SEMBAWANG DRIVE,False,False,SEMBAWANG,SEMBAWANG NORTH,103.814540291548,1.45551208276585
POINT Z (103.817249280953 1.45273623395178 0),COLD STORAGE SINGAPORE (1983) PTE LTD,406A,SEMBAWANG DRIVE,2,751406,NW07636K000,5C066E2789C353CC,406A SEMBAWANG DRIVE,False,True,SEMBAWANG,SEMBAWANG NORTH,103.817249280953,1.45273623395178
POINT Z (103.908850766913 1.39652617622188 0),PRIME SUPERMARKET LIMITED,108,PUNGGOL FIELD,2,820108,S02127E000,4AC985587C816F4A,108 PUNGGOL FIELD,False,True,PUNGGOL,PUNGGOL FIELD,103.908850766913,1.39652617622188
POINT Z (103.896823897364 1.40541353593882 0),U STARS SUPERMARKET PTE. LTD.,261,PUNGGOL WAY,2,820261,NE15440C000,7B4B5C95D3ED11FA,261 PUNGGOL WAY,False,False,PUNGGOL,MATILDA,103.896823897364,1.40541353593882
POINT Z (103.770768312339 1.38358044412737 0),COLD STORAGE SINGAPORE (1983) PTE LTD,445,FAJAR ROAD,536,670445,B02026B000,45F42DD3A860C6BA,445 FAJAR ROAD,False,True,BUKIT PANJANG,FAJAR,103.770768312339,1.38358044412737
POINT Z (103.773924087036 1.3734302528997 0),HAO MART PTE. LTD.,205,PETIR ROAD,595,670205,NW16634L000,CF928B697551C00C,205 PETIR ROAD,False,True,BUKIT PANJANG,BANGKIT,103.773924087036,1.3734302528997
POINT Z (103.83325904408 1.42539842085522 0),PRIME SUPERMARKET (1996) PTE LTD,761,YISHUN STREET 72,348,760761,NW12G73N000,0FC68D1ED5B6C2A3,761 YISHUN STREET 72,False,True,YISHUN,YISHUN WEST,103.83325904408,1.42539842085522
POINT Z (103.945912189651 1.35590218547803 0),SHENG SIONG SUPERMARKET PTE LTD,506,TAMPINES CENTRAL 1,361,520506,NE15002X000,7E58C2015549FAEF,506 TAMPINES CENTRAL 1,False,True,TAMPINES,TAMPINES EAST,103.945912189651,1.35590218547803
POINT Z (103.937088181626 1.37454928671824 0),COLD STORAGE SINGAPORE (1983) PTE LTD,776,PASIR RIS STREET 71,412,510776,NE09314N000,71E21A9890A079BB,776 PASIR RIS STREET 71,False,True,PASIR RIS,PASIR RIS WEST,103.937088181626,1.37454928671824
POINT Z (103.847249793129 1.42489931802522 0),COLD STORAGE SINGAPORE (1983) PTE LTD,418,YISHUN AVENUE 11,433,760418,B92077A000,34226FE728376EE8,418 YISHUN AVENUE 11,False,True,YISHUN,YISHUN EAST,103.847249793129,1.42489931802522
POINT Z (103.924149642486 1.32328960172887 0),PRIME SUPERMARKET LIMITED,25A,CHAI CHEE ROAD,459,461025,E02041X000,114811BB1E2E901E,25A CHAI CHEE ROAD,False,True,BEDOK,KEMBANGAN,103.924149642486,1.32328960172887
POINT Z (103.925500600051 1.3324023017993 0),SHENG SIONG SUPERMARKET PTE LTD,539A,BEDOK NORTH STREET 3,477,461539,E02032V000,08CE3D61110B19D9,539A BEDOK NORTH STREET 3,False,True,BEDOK,BEDOK NORTH,103.925500600051,1.3324023017993
POINT Z (103.943632362171 1.31935027280391 0),HAO MART PTE. LTD.,69,BEDOK SOUTH AVENUE 3,484,460069,SE17500A000,4F5E8E47A4AFCD1D,69 BEDOK SOUTH AVENUE 3,False,True,BEDOK,BEDOK SOUTH,103.943632362171,1.31935027280391
POINT Z (103.879314599056 1.35209059885687 0),PRIME SUPERMARKET (1996) PTE LTD,159A,HOUGANG STREET 11,1,531159,NE11529V000,1D6427DE409FCC21,159A HOUGANG STREET 11,False,True,HOUGANG,LORONG AH SOO,103.879314599056,1.35209059885687
POINT Z (103.896042269736 1.39484815593414 0),PRIME SUPERMARKET LIMITED,263,COMPASSVALE STREET,1,540263,S02151E000,16D3D8D8781C3AA1,263 COMPASSVALE STREET,False,True,SENGKANG,SENGKANG TOWN CENTRE,103.896042269736,1.39484815593414
POINT Z (103.79054802026 1.44275332239793 0),COLD STORAGE SINGAPORE (1983) PTE LTD,883,WOODLANDS STREET 82,498,730883,B02037X000,65D584E6DDA523B4,883 WOODLANDS STREET 82,False,True,WOODLANDS,MIDVIEW,103.79054802026,1.44275332239793
POINT Z (103.839489194952 1.374239506746 0),COLD STORAGE SINGAPORE (1983) PTE LTD,161,ANG MO KIO AVENUE 4,504,560161,B02032E000,1A2E9C2F8BA35161,161 ANG MO KIO AVENUE 4,False,True,ANG MO KIO,KEBUN BAHRU,103.839489194952,1.374239506746
POINT Z (103.882695852672 1.34560771369918 0),COLD STORAGE SINGAPORE (1983) PTE LTD,2,JALAN LOKAM,37,537846,SE16595E000,F55DE3E2B0C981EB,2 JALAN LOKAM,False,True,HOUGANG,TAI SENG,103.882695852672,1.34560771369918
POINT Z (103.896018766281 1.41690780081275 0),D-RON INVESTMENTS PTE. LTD.,2,SELETAR NORTH LINK,38,797601,CE15042P000,99B1CAC4470C0901,2 SELETAR NORTH LINK,False,False,SELETAR,PULAU PUNGGOL TIMOR,103.896018766281,1.41690780081275
POINT Z (103.625764663231 1.31396452002226 0),AJMAL SUPER MART PTE. LTD.,70,TUAS SOUTH AVENUE 1,40,637285,SW14718K000,7AE8237F6DEE15C5,70 TUAS SOUTH AVENUE 1,False,False,TUAS,TUAS PROMENADE,103.625764663231,1.31396452002226
POINT Z (103.829352202761 1.30756237263162 0),COLD STORAGE SINGAPORE (1983) PTE LTD,1,CLAYMORE DRIVE,41,229594,W02079B000,C020C5160253E34C,1 CLAYMORE DRIVE,False,True,ORCHARD,BOULEVARD,103.829352202761,1.30756237263162
POINT Z (103.743170430901 1.33320021671365 0),SONG FISH DEALER PTE LTD,50,JURONG GATEWAY ROAD,43,608549,SW17592A000,469AAB3D59153DDD,50 JURONG GATEWAY ROAD,False,False,JURONG EAST,JURONG GATEWAY,103.743170430901,1.33320021671365
POINT Z (103.83781497569 1.31617742511297 0),COLD STORAGE SINGAPORE (1983) PTE LTD,36A,DUNEARN ROAD,44,309426,W02064P000,C32AAAC86C761735,36A DUNEARN ROAD,False,True,NOVENA,MOULMEIN,103.83781497569,1.31617742511297
POINT Z (103.858505749339 1.28355872540744 0),COLD STORAGE SINGAPORE (1983) PTE LTD,2,BAYFRONT AVENUE,46,18972,CE10K82J000,80E8DB7463423070,2 BAYFRONT AVENUE,False,True,DOWNTOWN CORE,BAYFRONT SUBZONE,103.858505749339,1.28355872540744
POINT Z (103.80703380493 1.33166477553301 0),NG LIAN TEE,7,GREENDALE AVENUE,,289504,CE09902A000,7991DC603EB83F20,7 GREENDALE AVENUE,False,False,BUKIT TIMAH,HILLCREST,103.80703380493,1.33166477553301
POINT Z (103.878841903145 1.33312323989581 0),TAN PAK NANG,387,UPPER ALJUNIED ROAD,,367872,SE06465L000,CB2A311170E71520,387 UPPER ALJUNIED ROAD,False,False,TOA PAYOH,JOO SENG,103.878841903145,1.33312323989581
POINT Z (103.877004750675 1.31346903905925 0),HAO MART PTE. LTD.,32,LORONG 11 GEYLANG,,388724,CE11B47P000,D113286CD6E8F21B,32 LORONG 11 GEYLANG,False,True,GEYLANG,ALJUNIED,103.877004750675,1.31346903905925
POINT Z (103.877389270673 1.31208877136103 0),PRB TRADING PTE. LTD.,230,GEYLANG ROAD,,389290,CE10085L000,47B5BCB1D7C168C0,230 GEYLANG ROAD,False,False,GEYLANG,ALJUNIED,103.877389270673,1.31208877136103
POINT Z (103.878641503568 1.3127205532191 0),SHENG SIONG SUPERMARKET PTE LTD,301,GEYLANG ROAD,,389344,CE12546B000,868F8528944D1318,301 GEYLANG ROAD,False,True,GEYLANG,ALJUNIED,103.878641503568,1.3127205532191
POINT Z (103.885153154008 1.31328861546158 0),I-TEC SUPERMART PTE LTD,498/500,GEYLANG ROAD,,389456,SE11136C000,D5C385FAFF980C92,498/500 GEYLANG ROAD,False,False,GEYLANG,ALJUNIED,103.885153154008,1.31328861546158
POINT Z (103.881877796975 1.31357605426931 0),YEO HOCK HENG,5,ALJUNIED ROAD,,389797,CE09744N000,687629A701062EF9,5 ALJUNIED ROAD,False,False,GEYLANG,ALJUNIED,103.881877796975,1.31357605426931
POINT Z (103.909946665207 1.33809673913723 0),AZ SUPERMART PTE. LTD.,21,KAKI BUKIT AVENUE 3,,415920,NE04109P000,C4A6B8EB14A3DC3E,21 KAKI BUKIT AVENUE 3,False,False,BEDOK,KAKI BUKIT,103.909946665207,1.33809673913723
POINT Z (103.89614964274 1.30608636797175 0),FOODIE MARKET PLACE PTE. LTD.,313,TANJONG KATONG ROAD,,437096,SE15043B000,975B484B749941AD,313 TANJONG KATONG ROAD,False,False,MARINE PARADE,KATONG,103.89614964274,1.30608636797175
POINT Z (103.925857026336 1.31574933269594 0),ZAC MEAT & POULTRY PTE LTD,1B,FIGARO STREET,,458322,SE14C27C000,43ECB768EBA21B32,1B FIGARO STREET,False,False,BEDOK,FRANKEL,103.925857026336,1.31574933269594
